datetime,host,src,proto,type,spt,dpt,srcstr,cc,country,locale,localeabbr,postalcode,latitude,longitude
03/03/2013 21:53,groucho-oregon,1032051418,TCP,,6000,1433,61.131.218.218,CN,China,Jiangxi Sheng,36,,28.55,115.9333
03/03/2013 21:57,groucho-oregon,1347834426,UDP,,5270,5060,80.86.82.58,DE,Germany,,,,51,9
03/03/2013 21:58,groucho-oregon,2947856490,TCP,,2489,1080,175.180.184.106,TW,Taiwan,Taipei,,,25.0392,121.525
03/03/2013 21:58,groucho-us-east,841842716,UDP,,43235,1900,50.45.128.28,US,United States,Oregon,OR,97124,45.5848,-122.9117
03/03/2013 21:58,groucho-singapore,3587648279,TCP,,56577,80,213.215.43.23,FR,France,,,,48.86,2.35
03/03/2013 21:58,groucho-tokyo,3323217250,TCP,,32628,2323,198.20.69.98,US,United States,Illinois,IL,60661,41.8825,-87.6441
03/03/2013 21:59,groucho-oregon,3730416887,TCP,,6000,1433,222.89.164.247,CN,China,Henan Sheng,41,,34.6836,113.5325
03/03/2013 22:07,groucho-singapore,3738622573,TCP,,6000,3306,222.214.218.109,CN,China,Sichuan Sheng,51,,30.6667,104.0667
03/03/2013 22:12,groucho-oregon,3683919430,TCP,,6000,1433,219.148.38.70,CN,China,Hebei,13,,39.8897,115.275
03/03/2013 22:14,groucho-singapore,1007884304,TCP,,6000,1433,60.19.24.16,CN,China,Liaoning,21,,41.7922,123.4328
03/03/2013 22:14,groucho-tokyo,3639889826,TCP,,6000,1433,216.244.79.162,US,United States,Washington,WA,98168,47.4891,-122.2908
03/03/2013 22:20,groucho-oregon,1965603898,TCP,,9907,1433,117.40.188.58,CN,China,Jiangxi Sheng,36,,28.55,115.9333
03/03/2013 22:20,groucho-sa,3672981807,TCP,,33367,22,218.237.65.47,KR,South Korea,Seoul,11,,37.4906,127.02
03/03/2013 22:20,zeppo-norcal,3672981807,TCP,,33367,22,218.237.65.47,KR,South Korea,Seoul,11,,37.4906,127.02
03/03/2013 22:19,groucho-norcal,3672981807,TCP,,33367,22,218.237.65.47,KR,South Korea,Seoul,11,,37.4906,127.02
03/03/2013 22:20,groucho-us-east,3672981807,TCP,,33367,22,218.237.65.47,KR,South Korea,Seoul,11,,37.4906,127.02
03/03/2013 22:21,groucho-eu,3672981807,TCP,,33367,22,218.237.65.47,KR,South Korea,Seoul,11,,37.4906,127.02
03/03/2013 22:21,groucho-sydney,3672981807,TCP,,33367,22,218.237.65.47,KR,South Korea,Seoul,11,,37.4906,127.02
03/03/2013 22:23,groucho-oregon,2382398543,TCP,,6000,1433,142.0.132.79,US,United States,California,CA,94024,37.3495,-122.1163
03/03/2013 22:26,groucho-tokyo,1965603898,TCP,,26180,1433,117.40.188.58,CN,China,Jiangxi Sheng,36,,28.55,115.9333
03/03/2013 22:29,groucho-eu,3683780686,UDP,,54790,5060,219.146.8.78,CN,China,Shandong Sheng,37,,36.6683,116.9972
03/03/2013 22:29,groucho-oregon,840591020,TCP,,2712,23,50.26.102.172,US,United States,Texas,TX,79109,35.1613,-101.879
03/03/2013 22:35,groucho-oregon,2945182618,TCP,,48754,23,175.139.235.154,MY,Malaysia,Selangor,10,,3.0833,101.65
03/03/2013 22:38,groucho-tokyo,621360428,TCP,,45855,5900,37.9.53.44,RU,Russia,St.-Petersburg,SPE,,59.8944,30.2642
03/03/2013 22:40,groucho-tokyo,3305593070,TCP,,3009,445,197.7.88.238,TN,Tunisia,,,,34,9
03/03/2013 22:40,groucho-tokyo,3305593070,TCP,,3009,445,197.7.88.238,TN,Tunisia,,,,34,9
03/03/2013 22:41,groucho-tokyo,3019952728,TCP,,3303,445,180.0.210.88,JP,Japan,Tokyo-to,13,,35.685,139.7514
03/03/2013 22:41,groucho-tokyo,3019952728,TCP,,3303,445,180.0.210.88,JP,Japan,Tokyo-to,13,,35.685,139.7514
03/03/2013 22:42,groucho-oregon,1017977401,TCP,,6000,1433,60.173.26.57,CN,China,Anhui Sheng,34,,31.8639,117.2808
03/03/2013 22:45,groucho-oregon,2917802434,TCP,,6000,3306,173.234.33.194,US,United States,Illinois,IL,60616,41.8471,-87.6248
03/03/2013 22:45,groucho-oregon,2073368071,TCP,,6000,1433,123.149.22.7,CN,China,Henan Sheng,41,,34.6836,113.5325
03/03/2013 22:47,groucho-tokyo,1412364802,TCP,,4042,445,84.46.250.2,LT,Lithuania,,,,56,24
03/03/2013 22:47,groucho-tokyo,1412364802,TCP,,4042,445,84.46.250.2,LT,Lithuania,,,,56,24
03/03/2013 22:48,groucho-oregon,1989170793,TCP,,6000,3306,118.144.86.105,CN,China,Beijing Shi,11,,39.9289,116.3883
03/03/2013 22:48,groucho-singapore,1033070424,TCP,,6000,135,61.147.103.88,CN,China,Jiangsu Sheng,32,,32.0617,118.7778
03/03/2013 22:53,groucho-oregon,1032051418,TCP,,6000,1433,61.131.218.218,CN,China,Jiangxi Sheng,36,,28.55,115.9333
03/03/2013 22:54,groucho-singapore,3702892700,TCP,,6000,1433,220.181.168.156,CN,China,Beijing Shi,11,,39.9289,116.3883
03/03/2013 22:55,groucho-us-east,1729413584,TCP,,4853,445,103.20.193.208,HK,Hong Kong,,,,22.25,114.1667
03/03/2013 22:55,groucho-us-east,1729413584,TCP,,4853,445,103.20.193.208,HK,Hong Kong,,,,22.25,114.1667
03/03/2013 22:55,groucho-us-east,1729413584,TCP,,4853,445,103.20.193.208,HK,Hong Kong,,,,22.25,114.1667
03/03/2013 22:55,groucho-oregon,1017972899,TCP,,6000,8080,60.173.8.163,CN,China,Anhui Sheng,34,,31.8639,117.2808
03/03/2013 22:55,groucho-norcal,3323217250,TCP,,47660,80,198.20.69.98,US,United States,Illinois,IL,60661,41.8825,-87.6441
03/03/2013 22:56,groucho-tokyo,3658882522,TCP,,6000,1433,218.22.29.218,CN,China,Anhui Sheng,34,,31.8639,117.2808
03/03/2013 22:56,groucho-oregon,2009021408,TCP,,6000,1433,119.191.59.224,CN,China,Shandong Sheng,37,,36.6683,116.9972
03/03/2013 22:58,groucho-singapore,1033071474,TCP,,6000,135,61.147.107.114,CN,China,Jiangsu Sheng,32,,32.0617,118.7778
03/03/2013 23:01,groucho-tokyo,1199028690,UDP,,57520,20029,71.119.185.210,US,United States,California,CA,91786,34.104,-117.6642
03/03/2013 23:01,groucho-tokyo,1199028690,UDP,,57520,20029,71.119.185.210,US,United States,California,CA,91786,34.104,-117.6642
03/03/2013 23:01,groucho-tokyo,1199028690,UDP,,57520,20029,71.119.185.210,US,United States,California,CA,91786,34.104,-117.6642
03/03/2013 23:01,groucho-tokyo,1199028690,UDP,,57520,20029,71.119.185.210,US,United States,California,CA,91786,34.104,-117.6642
03/03/2013 23:01,groucho-tokyo,1199028690,UDP,,57520,20029,71.119.185.210,US,United States,California,CA,91786,34.104,-117.6642
03/03/2013 23:01,groucho-tokyo,1199028690,UDP,,57520,20029,71.119.185.210,US,United States,California,CA,91786,34.104,-117.6642
03/03/2013 23:01,groucho-eu,2148114514,ICMP,8,,,128.9.160.82,US,United States,California,CA,90292,33.9777,-118.4351
03/03/2013 23:01,groucho-eu,2148114514,ICMP,8,,,128.9.160.82,US,United States,California,CA,90292,33.9777,-118.4351
03/03/2013 23:02,groucho-tokyo,1199028690,UDP,,57520,20029,71.119.185.210,US,United States,California,CA,91786,34.104,-117.6642
03/03/2013 23:02,groucho-tokyo,1199028690,UDP,,57520,20029,71.119.185.210,US,United States,California,CA,91786,34.104,-117.6642
03/03/2013 23:03,groucho-singapore,3688562967,TCP,,1419,9999,219.219.1.23,CN,China,Fujian,35,,25.0167,116.7116
03/03/2013 23:05,groucho-singapore,3702892698,TCP,,6000,1433,220.181.168.154,CN,China,Beijing Shi,11,,39.9289,116.3883
03/03/2013 23:06,groucho-singapore,3688562967,TCP,,4444,8082,219.219.1.23,CN,China,Fujian,35,,25.0167,116.7116
03/03/2013 23:06,groucho-singapore,2057163105,TCP,,49941,23,122.157.209.97,CN,China,Heilongjiang Sheng,23,,45.75,126.65
03/03/2013 23:08,groucho-singapore,782615554,ICMP,3,,,46.165.196.2,DE,Germany,,,,51,9
03/03/2013 23:09,groucho-oregon,1822662381,UDP,,5065,5060,108.163.158.237,US,United States,Washington,WA,,47.6062,-122.3321
03/03/2013 23:13,groucho-oregon,3630406730,TCP,,6000,1433,216.99.156.74,US,United States,California,CA,91789,34.0115,-117.8535
03/03/2013 23:15,groucho-singapore,1317115153,TCP,,61905,80,78.129.149.17,GB,United Kingdom,,,,51.5,-0.13
03/03/2013 23:15,groucho-singapore,1317115153,TCP,,61905,80,78.129.149.17,GB,United Kingdom,,,,51.5,-0.13
03/03/2013 23:16,groucho-tokyo,1033806433,TCP,,6000,1433,61.158.162.97,CN,China,Henan Sheng,41,,34.6836,113.5325
03/03/2013 23:18,groucho-oregon,3322768888,TCP,,6000,1433,198.13.109.248,US,United States,California,CA,91789,34.0115,-117.8535
03/03/2013 23:21,groucho-us-east,2001351024,TCP,,60039,445,119.74.49.112,SG,Singapore,,,,1.2931,103.8558
03/03/2013 23:21,groucho-us-east,2001351024,TCP,,60039,445,119.74.49.112,SG,Singapore,,,,1.2931,103.8558
03/03/2013 23:21,groucho-us-east,2001351024,TCP,,60039,445,119.74.49.112,SG,Singapore,,,,1.2931,103.8558
03/03/2013 23:22,groucho-oregon,3639889826,TCP,,6000,1433,216.244.79.162,US,United States,Washington,WA,98168,47.4891,-122.2908
03/03/2013 23:22,groucho-oregon,387937299,UDP,,5063,5060,23.31.116.19,US,United States,New Mexico,NM,87111,35.1404,-106.4877
03/03/2013 23:22,groucho-singapore,1538852419,TCP,,43799,22,91.185.6.67,KZ,Kazakhstan,,,,48,68
03/03/2013 23:23,groucho-singapore,1033070415,TCP,,6000,1433,61.147.103.79,CN,China,Jiangsu Sheng,32,,32.0617,118.7778
03/03/2013 23:24,groucho-tokyo,1033532565,TCP,,17679,3389,61.154.116.149,CN,China,Fujian,35,,26.0614,119.3061
03/03/2013 23:26,zeppo-norcal,2917802434,TCP,,6000,3306,173.234.33.194,US,United States,Illinois,IL,60616,41.8471,-87.6248
03/03/2013 23:25,groucho-norcal,2917802434,TCP,,6000,3306,173.234.33.194,US,United States,Illinois,IL,60616,41.8471,-87.6248
03/03/2013 23:26,groucho-us-east,2917802434,TCP,,6000,3306,173.234.33.194,US,United States,Illinois,IL,60616,41.8471,-87.6248
03/03/2013 23:28,groucho-oregon,3639889826,TCP,,1037,1433,216.244.79.162,US,United States,Washington,WA,98168,47.4891,-122.2908
03/03/2013 23:29,groucho-oregon,3223226456,TCP,,6000,1433,192.30.136.88,US,United States,Nevada,NV,89027,36.7889,-114.1431
03/03/2013 23:29,groucho-tokyo,1169129130,UDP,,50380,161,69.175.126.170,US,United States,Illinois,IL,60654,41.8876,-87.6368
03/03/2013 23:30,groucho-oregon,1033070524,TCP,,6000,1433,61.147.103.188,CN,China,Jiangsu Sheng,32,,32.0617,118.7778
03/03/2013 23:30,groucho-singapore,621360428,TCP,,45855,5900,37.9.53.44,RU,Russia,St.-Petersburg,SPE,,59.8944,30.2642
03/03/2013 23:31,groucho-oregon,3351289838,TCP,,6000,1433,199.192.159.238,US,United States,California,CA,94536,37.567,-121.9829
03/03/2013 23:32,groucho-oregon,1017977401,TCP,,6000,1433,60.173.26.57,CN,China,Anhui Sheng,34,,31.8639,117.2808
03/03/2013 23:34,groucho-sa,1017972899,TCP,,6000,8080,60.173.8.163,CN,China,Anhui Sheng,34,,31.8639,117.2808
03/03/2013 23:34,groucho-us-east,998103092,TCP,,3351,139,59.125.216.52,TW,Taiwan,,,,23.5,121
03/03/2013 23:34,groucho-us-east,998103092,TCP,,3351,139,59.125.216.52,TW,Taiwan,,,,23.5,121
03/03/2013 23:34,groucho-us-east,998103092,TCP,,3351,139,59.125.216.52,TW,Taiwan,,,,23.5,121
03/03/2013 23:33,groucho-norcal,1017972899,TCP,,6000,8080,60.173.8.163,CN,China,Anhui Sheng,34,,31.8639,117.2808
03/03/2013 23:34,zeppo-norcal,1017972899,TCP,,6000,8080,60.173.8.163,CN,China,Anhui Sheng,34,,31.8639,117.2808
03/03/2013 23:34,groucho-us-east,1017972899,TCP,,6000,8080,60.173.8.163,CN,China,Anhui Sheng,34,,31.8639,117.2808
03/03/2013 23:34,groucho-eu,1017972899,TCP,,6000,8080,60.173.8.163,CN,China,Anhui Sheng,34,,31.8639,117.2808
03/03/2013 23:35,groucho-sydney,1017972899,TCP,,6000,8080,60.173.8.163,CN,China,Anhui Sheng,34,,31.8639,117.2808
03/03/2013 23:36,groucho-singapore,1823193186,TCP,,43783,80,108.171.184.98,US,United States,Texas,TX,78218,29.4889,-98.3987
03/03/2013 23:36,groucho-singapore,1823193186,TCP,,44003,8080,108.171.184.98,US,United States,Texas,TX,78218,29.4889,-98.3987
03/03/2013 23:36,groucho-singapore,1945020782,TCP,,25476,8080,115.238.169.110,CN,China,Zhejiang Sheng,33,,30.2936,120.1614
03/03/2013 23:36,groucho-us-east,998103092,TCP,,2363,445,59.125.216.52,TW,Taiwan,,,,23.5,121
03/03/2013 23:36,groucho-us-east,998103092,TCP,,2363,445,59.125.216.52,TW,Taiwan,,,,23.5,121
03/03/2013 23:36,groucho-us-east,998103092,TCP,,2363,445,59.125.216.52,TW,Taiwan,,,,23.5,121
03/03/2013 23:37,groucho-singapore,1032743458,TCP,,36419,22,61.142.106.34,CN,China,Guangdong,44,,23.1167,113.25
03/03/2013 23:38,groucho-oregon,1965603898,TCP,,53644,1433,117.40.188.58,CN,China,Jiangxi Sheng,36,,28.55,115.9333
03/03/2013 23:38,groucho-eu,3754919458,UDP,,53392,49804,223.207.134.34,TH,Thailand,,,,15,100
03/03/2013 23:38,groucho-oregon,2095712422,TCP,,6000,1433,124.234.8.166,CN,China,Jilin Sheng,22,,43.88,125.3228
03/03/2013 23:41,groucho-tokyo,2943260025,TCP,,4125,23,175.110.149.121,PK,Pakistan,,,,30,70
03/03/2013 23:42,groucho-oregon,1823211283,TCP,,6000,1433,108.171.255.19,US,United States,California,CA,91789,34.0115,-117.8535
03/03/2013 23:43,groucho-tokyo,1965603898,TCP,,40155,1433,117.40.188.58,CN,China,Jiangxi Sheng,36,,28.55,115.9333
03/03/2013 23:48,groucho-tokyo,710973289,TCP,,6000,1433,42.96.151.105,CN,China,Beijing Shi,11,,39.9289,116.3883
03/03/2013 23:50,groucho-oregon,1580555714,TCP,,3766,445,94.53.93.194,RO,Romania,Giurgiu,GR,,43.8833,25.9667
03/03/2013 23:51,groucho-singapore,2099893546,TCP,,8888,1433,125.41.213.42,CN,China,Henan Sheng,41,,34.6836,113.5325
03/03/2013 23:51,groucho-singapore,3688562967,TCP,,2285,90,219.219.1.23,CN,China,Fujian,35,,25.0167,116.7116
03/03/2013 23:52,groucho-oregon,1032051418,TCP,,6000,1433,61.131.218.218,CN,China,Jiangxi Sheng,36,,28.55,115.9333
03/03/2013 23:53,groucho-oregon,3235001182,TCP,,6000,1433,192.210.51.94,US,United States,California,CA,91789,34.0115,-117.8535
03/03/2013 23:53,zeppo-norcal,621360386,TCP,,46793,5900,37.9.53.2,RU,Russia,St.-Petersburg,SPE,,59.8944,30.2642
03/03/2013 23:55,groucho-singapore,18512187,TCP,,6000,8080,1.26.121.59,CN,China,Inner Mongolia,15,,40.6522,109.8222
03/03/2013 23:56,groucho-singapore,3688562967,TCP,,1090,9090,219.219.1.23,CN,China,Fujian,35,,25.0167,116.7116
03/03/2013 23:57,groucho-tokyo,1169129130,TCP,,35799,80,69.175.126.170,US,United States,Illinois,IL,60654,41.8876,-87.6368
03/03/2013 23:57,groucho-tokyo,1169129130,TCP,,35800,80,69.175.126.170,US,United States,Illinois,IL,60654,41.8876,-87.6368
04/03/2013 00:06,groucho-eu,1427270909,TCP,,9800,445,85.18.108.253,IT,Italy,Milan,MI,,45.5833,9.1167
04/03/2013 00:06,groucho-eu,1427270909,TCP,,9800,445,85.18.108.253,IT,Italy,Milan,MI,,45.5833,9.1167
04/03/2013 00:07,groucho-oregon,844201703,TCP,,3153,135,50.81.126.231,US,United States,Illinois,IL,61265,41.487,-90.4773
04/03/2013 00:07,groucho-oregon,844201703,TCP,,3153,135,50.81.126.231,US,United States,Illinois,IL,61265,41.487,-90.4773
04/03/2013 00:13,groucho-singapore,3740323306,TCP,,56927,1433,222.240.205.234,CN,China,Hunan,43,,28.1792,113.1136
04/03/2013 00:18,groucho-singapore,3322765372,TCP,,6000,1433,198.13.96.60,US,United States,California,CA,91789,34.0115,-117.8535
04/03/2013 00:20,groucho-sa,1627302658,TCP,,38051,1080,96.254.171.2,US,United States,Florida,FL,34668,28.3031,-82.7048
04/03/2013 00:20,groucho-sa,1627302658,TCP,,38051,1080,96.254.171.2,US,United States,Florida,FL,34668,28.3031,-82.7048
04/03/2013 00:20,groucho-tokyo,3322765372,TCP,,6000,1433,198.13.96.60,US,United States,California,CA,91789,34.0115,-117.8535
04/03/2013 00:20,groucho-norcal,1054577697,TCP,,3770,139,62.219.148.33,IL,Israel,Tel Aviv,TA,,32.0667,34.7667
04/03/2013 00:21,zeppo-norcal,1054577697,TCP,,3775,139,62.219.148.33,IL,Israel,Tel Aviv,TA,,32.0667,34.7667
04/03/2013 00:20,groucho-norcal,1054577697,TCP,,3770,139,62.219.148.33,IL,Israel,Tel Aviv,TA,,32.0667,34.7667
04/03/2013 00:21,zeppo-norcal,1054577697,TCP,,3775,139,62.219.148.33,IL,Israel,Tel Aviv,TA,,32.0667,34.7667
04/03/2013 00:21,groucho-tokyo,1949336883,TCP,,3061,445,116.48.133.51,HK,Hong Kong,,,,22.2833,114.15
04/03/2013 00:20,groucho-norcal,1054577697,TCP,,3770,139,62.219.148.33,IL,Israel,Tel Aviv,TA,,32.0667,34.7667
04/03/2013 00:21,zeppo-norcal,1054577697,TCP,,3775,139,62.219.148.33,IL,Israel,Tel Aviv,TA,,32.0667,34.7667
04/03/2013 00:22,groucho-norcal,1054577697,TCP,,2843,445,62.219.148.33,IL,Israel,Tel Aviv,TA,,32.0667,34.7667
04/03/2013 00:23,zeppo-norcal,1054577697,TCP,,2849,445,62.219.148.33,IL,Israel,Tel Aviv,TA,,32.0667,34.7667
04/03/2013 00:22,groucho-norcal,1054577697,TCP,,2843,445,62.219.148.33,IL,Israel,Tel Aviv,TA,,32.0667,34.7667
04/03/2013 00:23,zeppo-norcal,1054577697,TCP,,2849,445,62.219.148.33,IL,Israel,Tel Aviv,TA,,32.0667,34.7667
04/03/2013 00:23,groucho-norcal,1054577697,TCP,,2843,445,62.219.148.33,IL,Israel,Tel Aviv,TA,,32.0667,34.7667
04/03/2013 00:23,zeppo-norcal,1054577697,TCP,,2849,445,62.219.148.33,IL,Israel,Tel Aviv,TA,,32.0667,34.7667
04/03/2013 00:26,groucho-oregon,1126213611,TCP,,2421,445,67.32.167.235,US,United States,Kentucky,KY,40245,38.2582,-85.4526
04/03/2013 00:26,groucho-singapore,1019194044,TCP,,6000,135,60.191.170.188,CN,China,Jiangsu Sheng,32,,32.4907,119.9081
04/03/2013 00:28,groucho-sa,1538852419,TCP,,13204,22,91.185.6.67,KZ,Kazakhstan,,,,48,68
04/03/2013 00:28,groucho-oregon,1995742035,TCP,,6000,3306,118.244.155.83,CN,China,Beijing Shi,11,,39.9289,116.3883
04/03/2013 00:27,groucho-norcal,1538852419,TCP,,13204,22,91.185.6.67,KZ,Kazakhstan,,,,48,68
04/03/2013 00:28,zeppo-norcal,1538852419,TCP,,13204,22,91.185.6.67,KZ,Kazakhstan,,,,48,68
04/03/2013 00:28,groucho-us-east,1538852419,TCP,,13204,22,91.185.6.67,KZ,Kazakhstan,,,,48,68
04/03/2013 00:28,groucho-eu,1538852419,TCP,,13204,22,91.185.6.67,KZ,Kazakhstan,,,,48,68
04/03/2013 00:28,groucho-sydney,1538852419,TCP,,13204,22,91.185.6.67,KZ,Kazakhstan,,,,48,68
04/03/2013 00:29,groucho-oregon,249236627,ICMP,8,,,14.219.12.147,CN,China,Guangdong,44,,23.1167,113.25
04/03/2013 00:29,groucho-oregon,249236627,ICMP,8,,,14.219.12.147,CN,China,Guangdong,44,,23.1167,113.25
04/03/2013 00:31,groucho-us-east,1627302658,TCP,,50137,1080,96.254.171.2,US,United States,Florida,FL,34668,28.3031,-82.7048
04/03/2013 00:31,groucho-us-east,1627302658,TCP,,50137,1080,96.254.171.2,US,United States,Florida,FL,34668,28.3031,-82.7048
04/03/2013 00:31,groucho-tokyo,1890534725,TCP,,6000,1433,112.175.69.69,KR,South Korea,,,,37.57,126.98
04/03/2013 00:39,groucho-us-east,3265630675,TCP,,2547,445,194.165.145.211,JO,Jordan,,,,31,36
04/03/2013 00:43,groucho-norcal,1627302658,TCP,,46118,1080,96.254.171.2,US,United States,Florida,FL,34668,28.3031,-82.7048
04/03/2013 00:46,groucho-norcal,3145714135,UDP,,1025,137,187.127.201.215,BR,Brazil,,,,-10,-55
04/03/2013 00:47,zeppo-norcal,3145714135,UDP,,1025,137,187.127.201.215,BR,Brazil,,,,-10,-55
04/03/2013 00:49,groucho-oregon,1000693563,TCP,,34373,23,59.165.95.59,IN,India,,,,20,77
04/03/2013 00:53,groucho-oregon,1032051418,TCP,,6000,1433,61.131.218.218,CN,China,Jiangxi Sheng,36,,28.55,115.9333
04/03/2013 00:55,groucho-oregon,3658882522,TCP,,6000,1433,218.22.29.218,CN,China,Anhui Sheng,34,,31.8639,117.2808
04/03/2013 00:55,groucho-us-east,3373928698,UDP,,1212,52182,201.26.16.250,BR,Brazil,Estado de Sao Paulo,SP,,-21.6667,-49.75
04/03/2013 00:56,groucho-tokyo,1019193981,TCP,,6000,135,60.191.170.125,CN,China,Jiangsu Sheng,32,,32.4907,119.9081
04/03/2013 00:58,groucho-oregon,1017974346,TCP,,6000,8080,60.173.14.74,CN,China,Anhui Sheng,34,,31.8639,117.2808
04/03/2013 00:58,groucho-oregon,1965603898,TCP,,37936,1433,117.40.188.58,CN,China,Jiangxi Sheng,36,,28.55,115.9333
04/03/2013 00:59,groucho-us-east,1017974346,TCP,,6000,8080,60.173.14.74,CN,China,Anhui Sheng,34,,31.8639,117.2808
04/03/2013 00:59,groucho-eu,1017974346,TCP,,6000,8080,60.173.14.74,CN,China,Anhui Sheng,34,,31.8639,117.2808
04/03/2013 00:59,groucho-oregon,3325323751,TCP,,6000,1433,198.52.105.231,US,United States,California,CA,91387,34.4065,-118.4015
04/03/2013 01:01,groucho-singapore,1778592778,TCP,,6000,3306,106.3.44.10,CN,China,Beijing Shi,11,,39.9289,116.3883
04/03/2013 01:01,groucho-oregon,3630404562,TCP,,6000,1433,216.99.147.210,US,United States,California,CA,91789,34.0115,-117.8535
04/03/2013 01:02,zeppo-norcal,3630404562,TCP,,6000,1433,216.99.147.210,US,United States,California,CA,91789,34.0115,-117.8535
04/03/2013 01:02,groucho-norcal,3630404562,TCP,,6000,1433,216.99.147.210,US,United States,California,CA,91789,34.0115,-117.8535
04/03/2013 01:03,groucho-oregon,3689611647,TCP,,6000,1433,219.235.1.127,CN,China,Beijing Shi,11,,39.9289,116.3883
04/03/2013 01:03,groucho-tokyo,2956823424,TCP,,1382,3128,176.61.139.128,SE,Sweden,,,,62,15
04/03/2013 01:03,groucho-sydney,2829527569,TCP,,16433,445,168.167.42.17,BW,Botswana,South East District,SE,,-24.6464,25.9119
04/03/2013 01:03,groucho-tokyo,2956823424,TCP,,1382,3128,176.61.139.128,SE,Sweden,,,,62,15
04/03/2013 01:04,groucho-sydney,2829527569,TCP,,16433,445,168.167.42.17,BW,Botswana,South East District,SE,,-24.6464,25.9119
04/03/2013 01:04,groucho-tokyo,2956823424,TCP,,1382,3128,176.61.139.128,SE,Sweden,,,,62,15
04/03/2013 01:04,groucho-sydney,2829527569,TCP,,16433,445,168.167.42.17,BW,Botswana,South East District,SE,,-24.6464,25.9119
04/03/2013 01:04,groucho-tokyo,1965603898,TCP,,23120,1433,117.40.188.58,CN,China,Jiangxi Sheng,36,,28.55,115.9333
04/03/2013 01:05,groucho-tokyo,3036214141,ICMP,8,,,180.248.243.125,ID,Indonesia,,,,-5,120
04/03/2013 01:05,groucho-tokyo,3036214141,ICMP,8,,,180.248.243.125,ID,Indonesia,,,,-5,120
04/03/2013 01:06,groucho-oregon,2073368071,TCP,,6000,1433,123.149.22.7,CN,China,Henan Sheng,41,,34.6836,113.5325
04/03/2013 01:08,groucho-singapore,1033070424,TCP,,6000,1433,61.147.103.88,CN,China,Jiangsu Sheng,32,,32.0617,118.7778
04/03/2013 01:08,groucho-oregon,1902742385,TCP,,6000,3306,113.105.139.113,CN,China,Guangdong,44,,23.1167,113.25
04/03/2013 01:09,groucho-oregon,841842716,UDP,,63546,1900,50.45.128.28,US,United States,Oregon,OR,97124,45.5848,-122.9117
04/03/2013 01:09,groucho-tokyo,3098258242,TCP,,8714,5900,184.171.171.66,US,United States,Arizona,AZ,85281,33.4357,-111.9171
04/03/2013 01:17,groucho-singapore,454107922,TCP,,59407,3306,27.17.35.18,CN,China,Hubei,42,,30.5801,114.2734
04/03/2013 01:17,groucho-eu,3659280333,TCP,,32172,80,218.28.47.205,CN,China,Henan Sheng,41,,34.6836,113.5325
04/03/2013 01:17,groucho-eu,3659280333,TCP,,32172,80,218.28.47.205,CN,China,Henan Sheng,41,,34.6836,113.5325
04/03/2013 01:17,groucho-tokyo,3342555167,ICMP,0,,,199.59.88.31,US,United States,Michigan,MI,48334,42.5065,-83.3491
04/03/2013 01:18,groucho-eu,415022633,TCP,,1245,23,24.188.190.41,US,United States,New Jersey,NJ,7054,40.8597,-74.4026
04/03/2013 01:18,groucho-oregon,3730416887,TCP,,6000,1433,222.89.164.247,CN,China,Henan Sheng,41,,34.6836,113.5325
04/03/2013 01:18,groucho-sydney,3550629683,TCP,,43876,5900,211.162.79.51,CN,China,Beijing Shi,11,,39.9289,116.3883
04/03/2013 01:20,groucho-tokyo,630431604,TCP,,1636,445,37.147.159.116,RU,Russia,,,,60,100
04/03/2013 01:21,groucho-tokyo,630431604,TCP,,1636,445,37.147.159.116,RU,Russia,,,,60,100
04/03/2013 01:22,groucho-tokyo,1081608730,TCP,,47141,21,64.120.10.26,US,United States,California,CA,,33.9908,-118.4601
04/03/2013 01:24,groucho-singapore,2061739129,TCP,,6000,3306,122.227.164.121,CN,China,Zhejiang Sheng,33,,29.8782,121.5495
04/03/2013 01:29,groucho-singapore,1031882909,TCP,,47073,22,61.129.72.157,CN,China,,,,35,105
04/03/2013 01:29,groucho-singapore,1031882909,TCP,,47073,22,61.129.72.157,CN,China,,,,35,105
04/03/2013 01:32,groucho-oregon,1945101789,TCP,,26069,1433,115.239.229.221,CN,China,Zhejiang Sheng,33,,30.2936,120.1614
04/03/2013 01:35,groucho-singapore,2990476995,ICMP,3,,,178.63.14.195,DE,Germany,,,,51,9
04/03/2013 01:35,groucho-sydney,1546471887,TCP,,61420,110,92.45.73.207,TR,Turkey,Istanbul,34,,41.0186,28.9647
04/03/2013 01:35,groucho-sydney,1546471887,TCP,,61420,110,92.45.73.207,TR,Turkey,Istanbul,34,,41.0186,28.9647
04/03/2013 01:35,groucho-sydney,1546471887,TCP,,61420,110,92.45.73.207,TR,Turkey,Istanbul,34,,41.0186,28.9647
04/03/2013 01:36,zeppo-norcal,3204281314,TCP,,63967,445,190.253.115.226,CO,Colombia,Bogota D.C.,DC,,4.6492,-74.0628
04/03/2013 01:37,groucho-tokyo,1033071445,TCP,,4445,135,61.147.107.85,CN,China,Jiangsu Sheng,32,,32.0617,118.7778
04/03/2013 01:39,groucho-oregon,2990476688,TCP,,52044,5631,178.63.13.144,DE,Germany,,,,51,9
04/03/2013 01:42,groucho-oregon,3639889826,TCP,,1037,1433,216.244.79.162,US,United States,Washington,WA,98168,47.4891,-122.2908
04/03/2013 01:45,groucho-tokyo,3639889826,TCP,,6000,1433,216.244.79.162,US,United States,Washington,WA,98168,47.4891,-122.2908
04/03/2013 01:45,groucho-norcal,3323217522,TCP,,38294,143,198.20.70.114,US,United States,Illinois,IL,60661,41.8825,-87.6441
04/03/2013 01:50,groucho-oregon,1032051418,TCP,,6000,1433,61.131.218.218,CN,China,Jiangxi Sheng,36,,28.55,115.9333
04/03/2013 01:52,groucho-oregon,1019193981,TCP,,6000,135,60.191.170.125,CN,China,Jiangsu Sheng,32,,32.4907,119.9081
04/03/2013 01:53,groucho-oregon,1992458275,TCP,,6000,1433,118.194.128.35,CN,China,Beijing Shi,11,,39.9289,116.3883
04/03/2013 01:55,groucho-sa,619107755,UDP,,16982,42776,36.230.213.171,TW,Taiwan,,,,23.5,121
04/03/2013 01:55,groucho-sa,619107755,UDP,,16982,42776,36.230.213.171,TW,Taiwan,,,,23.5,121
04/03/2013 01:55,groucho-sa,619107755,UDP,,16982,42776,36.230.213.171,TW,Taiwan,,,,23.5,121
04/03/2013 01:55,groucho-sa,619107755,UDP,,16982,42776,36.230.213.171,TW,Taiwan,,,,23.5,121
04/03/2013 01:55,groucho-sa,619107755,UDP,,16982,42776,36.230.213.171,TW,Taiwan,,,,23.5,121
04/03/2013 01:56,groucho-sa,619107755,UDP,,16982,42776,36.230.213.171,TW,Taiwan,,,,23.5,121
04/03/2013 01:56,groucho-sa,619107755,UDP,,16982,42776,36.230.213.171,TW,Taiwan,,,,23.5,121
04/03/2013 01:56,groucho-singapore,3000183874,UDP,,5063,5060,178.211.44.66,TR,Turkey,,,,39,35
04/03/2013 02:02,groucho-tokyo,523039872,UDP,,1036,20029,31.44.244.128,RU,Russia,,,,60,100
04/03/2013 02:02,groucho-tokyo,523039872,UDP,,1036,20029,31.44.244.128,RU,Russia,,,,60,100
04/03/2013 02:02,groucho-tokyo,523039872,UDP,,1036,20029,31.44.244.128,RU,Russia,,,,60,100
04/03/2013 02:02,groucho-tokyo,523039872,UDP,,1036,20029,31.44.244.128,RU,Russia,,,,60,100
04/03/2013 02:02,groucho-tokyo,523039872,UDP,,1036,20029,31.44.244.128,RU,Russia,,,,60,100
04/03/2013 02:03,groucho-tokyo,523039872,UDP,,1036,20029,31.44.244.128,RU,Russia,,,,60,100
04/03/2013 02:03,groucho-tokyo,523039872,UDP,,1036,20029,31.44.244.128,RU,Russia,,,,60,100
04/03/2013 02:03,groucho-singapore,1037778547,TCP,,5376,22,61.219.62.115,TW,Taiwan,,,,23.5,121
04/03/2013 02:07,groucho-tokyo,998045289,TCP,,2300,445,59.124.246.105,TW,Taiwan,Taipei,,,25.0392,121.525
04/03/2013 02:07,groucho-tokyo,998045289,TCP,,2300,445,59.124.246.105,TW,Taiwan,Taipei,,,25.0392,121.525
04/03/2013 02:09,groucho-oregon,1017974346,TCP,,6000,8080,60.173.14.74,CN,China,Anhui Sheng,34,,31.8639,117.2808
04/03/2013 02:09,groucho-us-east,1017974346,TCP,,6000,8080,60.173.14.74,CN,China,Anhui Sheng,34,,31.8639,117.2808
04/03/2013 02:09,groucho-eu,1017974346,TCP,,6000,8080,60.173.14.74,CN,China,Anhui Sheng,34,,31.8639,117.2808
04/03/2013 02:10,groucho-singapore,176362647,UDP,,67,68,10.131.20.151,,,,,,,
04/03/2013 02:10,groucho-sydney,3684010726,TCP,,39106,22,219.149.138.230,CN,China,Beijing Shi,11,,39.9289,116.3883
04/03/2013 02:11,groucho-tokyo,1778592778,TCP,,6000,3306,106.3.44.10,CN,China,Beijing Shi,11,,39.9289,116.3883
04/03/2013 02:13,groucho-us-east,3323217226,TCP,,38793,443,198.20.69.74,US,United States,Illinois,IL,60661,41.8825,-87.6441
04/03/2013 02:15,groucho-oregon,3235001155,TCP,,6000,1433,192.210.51.67,US,United States,California,CA,91789,34.0115,-117.8535
04/03/2013 02:15,groucho-oregon,2382398543,TCP,,6000,1433,142.0.132.79,US,United States,California,CA,94024,37.3495,-122.1163
04/03/2013 02:18,groucho-singapore,2111885058,TCP,,4340,8080,125.224.207.2,TW,Taiwan,Taipei,,,25.0392,121.525
04/03/2013 02:20,groucho-oregon,1965603898,TCP,,31270,1433,117.40.188.58,CN,China,Jiangxi Sheng,36,,28.55,115.9333
04/03/2013 02:21,groucho-oregon,3231346276,TCP,,6000,1433,192.154.110.100,US,United States,California,CA,90017,34.053,-118.2642
04/03/2013 02:22,groucho-oregon,3736745024,TCP,,6000,1433,222.186.52.64,CN,China,Jiangsu Sheng,32,,32.0617,118.7778
04/03/2013 02:26,groucho-oregon,3735594210,TCP,,6000,1433,222.168.164.226,CN,China,Jilin Sheng,22,,43.88,125.3228
04/03/2013 02:26,groucho-tokyo,1965603898,TCP,,35129,1433,117.40.188.58,CN,China,Jiangxi Sheng,36,,28.55,115.9333
04/03/2013 02:27,groucho-singapore,710973289,TCP,,6000,1433,42.96.151.105,CN,China,Beijing Shi,11,,39.9289,116.3883
04/03/2013 02:27,groucho-singapore,1931851002,UDP,,16023,38161,115.37.180.250,JP,Japan,Aichi-ken,23,,35.1802,136.9067
04/03/2013 02:27,groucho-singapore,1931851002,UDP,,16023,38161,115.37.180.250,JP,Japan,Aichi-ken,23,,35.1802,136.9067
04/03/2013 02:27,groucho-singapore,1931851002,UDP,,16023,38161,115.37.180.250,JP,Japan,Aichi-ken,23,,35.1802,136.9067
04/03/2013 02:27,groucho-singapore,1931851002,UDP,,16023,38161,115.37.180.250,JP,Japan,Aichi-ken,23,,35.1802,136.9067
04/03/2013 02:27,groucho-singapore,1931851002,UDP,,16023,38161,115.37.180.250,JP,Japan,Aichi-ken,23,,35.1802,136.9067
04/03/2013 02:28,groucho-singapore,1931851002,UDP,,16023,38161,115.37.180.250,JP,Japan,Aichi-ken,23,,35.1802,136.9067
04/03/2013 02:28,groucho-singapore,1931851002,UDP,,16023,38161,115.37.180.250,JP,Japan,Aichi-ken,23,,35.1802,136.9067
04/03/2013 02:29,groucho-singapore,3670441849,TCP,,6000,3306,218.198.127.121,CN,China,Henan Sheng,41,,34.6836,113.5325
04/03/2013 02:31,groucho-sydney,1540294482,TCP,,25,25,91.207.7.82,UA,Ukraine,Chernivets'ka Oblast',77,,48.5813,25.6599
04/03/2013 02:31,groucho-sydney,183512399,UDP,,49456,161,10.240.45.79,,,,,,,
04/03/2013 02:35,groucho-sydney,183512399,UDP,,64019,161,10.240.45.79,,,,,,,
04/03/2013 02:36,groucho-norcal,1540294482,TCP,,25,25,91.207.7.82,UA,Ukraine,Chernivets'ka Oblast',77,,48.5813,25.6599
04/03/2013 02:36,zeppo-norcal,1540294482,TCP,,25,25,91.207.7.82,UA,Ukraine,Chernivets'ka Oblast',77,,48.5813,25.6599
04/03/2013 02:37,groucho-us-east,1540294482,TCP,,25,25,91.207.7.82,UA,Ukraine,Chernivets'ka Oblast',77,,48.5813,25.6599
04/03/2013 02:37,groucho-sydney,183512399,UDP,,64024,161,10.240.45.79,,,,,,,
04/03/2013 02:37,groucho-sydney,183512399,UDP,,64024,161,10.240.45.79,,,,,,,
04/03/2013 02:39,groucho-oregon,1995737546,TCP,,6000,1433,118.244.137.202,CN,China,Beijing Shi,11,,39.9289,116.3883
04/03/2013 02:42,zeppo-norcal,621360428,TCP,,45855,5900,37.9.53.44,RU,Russia,St.-Petersburg,SPE,,59.8944,30.2642
04/03/2013 02:44,groucho-oregon,1540294482,TCP,,25,25,91.207.7.82,UA,Ukraine,Chernivets'ka Oblast',77,,48.5813,25.6599
04/03/2013 02:45,groucho-singapore,2033769224,TCP,,6000,8080,121.56.219.8,CN,China,Inner Mongolia,15,,40.6522,109.8222
04/03/2013 02:47,groucho-oregon,1032051418,TCP,,6000,1433,61.131.218.218,CN,China,Jiangxi Sheng,36,,28.55,115.9333
04/03/2013 02:48,groucho-singapore,3664532981,TCP,,65279,22,218.108.85.245,CN,China,,,,35,105
04/03/2013 02:49,groucho-singapore,3322768892,TCP,,6000,1433,198.13.109.252,US,United States,California,CA,91789,34.0115,-117.8535
04/03/2013 02:49,groucho-oregon,3353851909,TCP,,3758,3389,199.231.184.5,US,United States,New Jersey,NJ,7094,40.7801,-74.0633
04/03/2013 02:50,groucho-tokyo,3290839612,TCP,,61754,3389,196.38.58.60,ZA,South Africa,,,,-29,24
04/03/2013 02:50,groucho-tokyo,3290839612,TCP,,61755,3389,196.38.58.60,ZA,South Africa,,,,-29,24
04/03/2013 02:51,groucho-oregon,1126213611,TCP,,3397,445,67.32.167.235,US,United States,Kentucky,KY,40245,38.2582,-85.4526
04/03/2013 02:51,groucho-singapore,1033070415,TCP,,6000,1433,61.147.103.79,CN,China,Jiangsu Sheng,32,,32.0617,118.7778
04/03/2013 02:52,groucho-singapore,3702892698,TCP,,6000,1433,220.181.168.154,CN,China,Beijing Shi,11,,39.9289,116.3883
04/03/2013 02:52,groucho-oregon,3639889826,TCP,,6000,1433,216.244.79.162,US,United States,Washington,WA,98168,47.4891,-122.2908
04/03/2013 02:53,zeppo-norcal,3550629683,TCP,,43876,5900,211.162.79.51,CN,China,Beijing Shi,11,,39.9289,116.3883
04/03/2013 02:54,groucho-oregon,1945101789,TCP,,28295,1433,115.239.229.221,CN,China,Zhejiang Sheng,33,,30.2936,120.1614
04/03/2013 02:56,groucho-oregon,2061513286,TCP,,8888,1433,122.224.50.70,CN,China,Guangdong,44,,24.0656,111.948
04/03/2013 02:57,groucho-singapore,3032095556,TCP,,6000,1433,180.186.27.68,CN,China,Beijing Shi,11,,39.9289,116.3883
04/03/2013 03:01,groucho-singapore,3736210160,TCP,,11595,3389,222.178.10.240,CN,China,Chongqing Shi,50,,29.5628,106.5528
04/03/2013 03:04,groucho-sydney,520683187,ICMP,3,,,31.8.254.179,RU,Russia,,,,60,100
04/03/2013 03:04,groucho-sydney,520683187,ICMP,3,,,31.8.254.179,RU,Russia,,,,60,100
04/03/2013 03:05,groucho-singapore,621360386,TCP,,46793,5900,37.9.53.2,RU,Russia,St.-Petersburg,SPE,,59.8944,30.2642
04/03/2013 03:05,groucho-singapore,3740323306,TCP,,5917,1433,222.240.205.234,CN,China,Hunan,43,,28.1792,113.1136
04/03/2013 03:15,groucho-singapore,3546779834,TCP,,1024,3389,211.103.144.186,CN,China,Beijing Shi,11,,39.9289,116.3883
04/03/2013 03:15,groucho-singapore,3325323751,TCP,,6000,1433,198.52.105.231,US,United States,California,CA,91387,34.4065,-118.4015
04/03/2013 03:17,groucho-tokyo,1595614038,TCP,,3063,445,95.27.35.86,RU,Russia,,,,60,100
04/03/2013 03:17,groucho-tokyo,1595614038,TCP,,3063,445,95.27.35.86,RU,Russia,,,,60,100
04/03/2013 03:17,groucho-eu,1169110634,TCP,,46864,80,69.175.54.106,US,United States,Illinois,IL,60654,41.8876,-87.6368
04/03/2013 03:17,groucho-eu,1169110634,TCP,,46864,443,69.175.54.106,US,United States,Illinois,IL,60654,41.8876,-87.6368
04/03/2013 03:17,groucho-eu,1169110634,TCP,,46864,8080,69.175.54.106,US,United States,Illinois,IL,60654,41.8876,-87.6368
04/03/2013 03:17,groucho-eu,1169110634,TCP,,46865,80,69.175.54.106,US,United States,Illinois,IL,60654,41.8876,-87.6368
04/03/2013 03:17,groucho-eu,1169110634,TCP,,46865,443,69.175.54.106,US,United States,Illinois,IL,60654,41.8876,-87.6368
04/03/2013 03:17,groucho-eu,1169110634,TCP,,46865,8080,69.175.54.106,US,United States,Illinois,IL,60654,41.8876,-87.6368
04/03/2013 03:19,groucho-eu,3707355707,TCP,,4935,3389,220.249.194.59,CN,China,,,,35,105
04/03/2013 03:21,groucho-oregon,3740308190,TCP,,6000,4899,222.240.146.222,CN,China,Hunan,43,,28.1792,113.1136
04/03/2013 03:25,groucho-singapore,1033070424,TCP,,6000,135,61.147.103.88,CN,China,Jiangsu Sheng,32,,32.0617,118.7778
04/03/2013 03:26,groucho-oregon,3735594210,TCP,,6000,1433,222.168.164.226,CN,China,Jilin Sheng,22,,43.88,125.3228
04/03/2013 03:26,groucho-oregon,1017974346,TCP,,6000,8080,60.173.14.74,CN,China,Anhui Sheng,34,,31.8639,117.2808
04/03/2013 03:27,groucho-us-east,1017974346,TCP,,6000,8080,60.173.14.74,CN,China,Anhui Sheng,34,,31.8639,117.2808
04/03/2013 03:27,groucho-eu,1017974346,TCP,,6000,8080,60.173.14.74,CN,China,Anhui Sheng,34,,31.8639,117.2808
04/03/2013 03:27,groucho-norcal,1569644398,TCP,,4935,3389,93.142.223.110,HR,Croatia,,,,45.1667,15.5
04/03/2013 03:28,groucho-oregon,2073368071,TCP,,6000,1433,123.149.22.7,CN,China,Henan Sheng,41,,34.6836,113.5325
04/03/2013 03:32,groucho-singapore,239067912,TCP,,59925,110,14.63.227.8,KR,South Korea,,,,37.57,126.98
04/03/2013 03:32,groucho-singapore,239067912,TCP,,59925,110,14.63.227.8,KR,South Korea,,,,37.57,126.98
04/03/2013 03:32,groucho-singapore,239067912,TCP,,59925,110,14.63.227.8,KR,South Korea,,,,37.57,126.98
04/03/2013 03:33,groucho-oregon,3074230039,TCP,,6000,1433,183.61.7.23,CN,China,Guangdong,44,,23.1167,113.25
04/03/2013 03:34,groucho-eu,170932385,UDP,,67,68,10.48.56.161,,,,,,,
04/03/2013 03:36,groucho-singapore,3549197398,TCP,,6000,22,211.140.116.86,CN,China,Zhejiang Sheng,33,,30.2936,120.1614
04/03/2013 03:35,groucho-norcal,1583755640,UDP,,37409,53,94.102.49.120,NL,Netherlands,,,,52.5,5.75
04/03/2013 03:35,zeppo-norcal,1583755640,UDP,,37409,53,94.102.49.120,NL,Netherlands,,,,52.5,5.75
04/03/2013 03:37,groucho-tokyo,2115196447,TCP,,6000,3389,126.19.86.31,JP,Japan,,,,35.69,139.69
04/03/2013 03:38,groucho-tokyo,1017972899,TCP,,6000,8080,60.173.8.163,CN,China,Anhui Sheng,34,,31.8639,117.2808
04/03/2013 03:43,groucho-oregon,1032051418,TCP,,6000,1433,61.131.218.218,CN,China,Jiangxi Sheng,36,,28.55,115.9333
04/03/2013 03:43,groucho-oregon,1965603898,TCP,,2591,1433,117.40.188.58,CN,China,Jiangxi Sheng,36,,28.55,115.9333
04/03/2013 03:47,groucho-singapore,1033071474,TCP,,6000,135,61.147.107.114,CN,China,Jiangsu Sheng,32,,32.0617,118.7778
04/03/2013 03:48,groucho-tokyo,1965603898,TCP,,31614,1433,117.40.188.58,CN,China,Jiangxi Sheng,36,,28.55,115.9333
04/03/2013 03:49,groucho-singapore,1991916569,TCP,,6000,1433,118.186.60.25,CN,China,Beijing Shi,11,,39.9289,116.3883
04/03/2013 03:53,groucho-us-east,1583755640,UDP,,37409,53,94.102.49.120,NL,Netherlands,,,,52.5,5.75
04/03/2013 03:53,groucho-singapore,1583755640,UDP,,51878,53,94.102.49.120,NL,Netherlands,,,,52.5,5.75
04/03/2013 03:55,groucho-singapore,3736743325,TCP,,6000,6666,222.186.45.157,CN,China,Jiangsu Sheng,32,,32.0617,118.7778
04/03/2013 03:56,groucho-oregon,3639889826,TCP,,1037,1433,216.244.79.162,US,United States,Washington,WA,98168,47.4891,-122.2908
04/03/2013 03:56,groucho-singapore,2947837053,TCP,,1649,1080,175.180.108.125,TW,Taiwan,Taipei,,,25.0392,121.525
04/03/2013 03:57,groucho-oregon,3323217250,TCP,,21789,23,198.20.69.98,US,United States,Illinois,IL,60661,41.8825,-87.6441
04/03/2013 03:57,zeppo-norcal,1990929937,ICMP,3,,,118.171.46.17,TW,Taiwan,Taipei,,,25.0392,121.525
04/03/2013 03:57,zeppo-norcal,1990929937,ICMP,3,,,118.171.46.17,TW,Taiwan,Taipei,,,25.0392,121.525
04/03/2013 04:00,groucho-singapore,2682419123,TCP,,6000,3306,159.226.119.179,CN,China,Beijing Shi,11,,39.9289,116.3883
04/03/2013 04:01,groucho-tokyo,1033071447,TCP,,4445,135,61.147.107.87,CN,China,Jiangsu Sheng,32,,32.0617,118.7778
04/03/2013 04:01,groucho-oregon,3630406730,TCP,,6000,1433,216.99.156.74,US,United States,California,CA,91789,34.0115,-117.8535
04/03/2013 04:03,groucho-oregon,3322768888,TCP,,6000,1433,198.13.109.248,US,United States,California,CA,91789,34.0115,-117.8535
04/03/2013 04:03,groucho-oregon,2025940614,TCP,,52925,22,120.193.102.134,CN,China,,,,35,105
04/03/2013 04:03,groucho-oregon,2025940614,TCP,,52925,22,120.193.102.134,CN,China,,,,35,105
04/03/2013 04:04,groucho-singapore,1893226524,TCP,,6000,1433,112.216.88.28,KR,South Korea,,,,37.57,126.98
04/03/2013 04:06,groucho-oregon,1033806433,TCP,,6000,1433,61.158.162.97,CN,China,Henan Sheng,41,,34.6836,113.5325
04/03/2013 04:07,groucho-oregon,1928484749,TCP,,23905,22,114.242.87.141,CN,China,Beijing Shi,11,,39.9289,116.3883
04/03/2013 04:08,groucho-eu,1583755640,UDP,,37409,53,94.102.49.120,NL,Netherlands,,,,52.5,5.75
04/03/2013 04:09,groucho-singapore,621360386,TCP,,46793,5900,37.9.53.2,RU,Russia,St.-Petersburg,SPE,,59.8944,30.2642
04/03/2013 04:11,groucho-oregon,1627302658,TCP,,35079,3128,96.254.171.2,US,United States,Florida,FL,34668,28.3031,-82.7048
04/03/2013 04:11,groucho-tokyo,3583290558,TCP,,6000,3306,213.148.172.190,RU,Russia,Novgorodskaya Oblast',NGR,,58.5167,31.2833
04/03/2013 04:14,groucho-singapore,1912492621,ICMP,3,,,113.254.82.77,HK,Hong Kong,,,,22.25,114.1667
04/03/2013 04:14,groucho-singapore,1912492621,ICMP,3,,,113.254.82.77,HK,Hong Kong,,,,22.25,114.1667
04/03/2013 04:15,groucho-sa,2650653290,TCP,,59737,3389,157.253.194.106,CO,Colombia,Bogota D.C.,DC,,4.6492,-74.0628
04/03/2013 04:15,groucho-sa,2650653290,TCP,,59738,3389,157.253.194.106,CO,Colombia,Bogota D.C.,DC,,4.6492,-74.0628
04/03/2013 04:16,groucho-singapore,2085262162,TCP,,3970,3389,124.74.147.82,CN,China,Shanghai Shi,31,,31.0456,121.3997
04/03/2013 04:16,groucho-norcal,3190145252,TCP,,2654,3389,190.37.192.228,VE,Venezuela,,,,8,-66
04/03/2013 04:16,groucho-norcal,3190145252,TCP,,2654,3389,190.37.192.228,VE,Venezuela,,,,8,-66
04/03/2013 04:16,groucho-norcal,3190145252,TCP,,2654,3389,190.37.192.228,VE,Venezuela,,,,8,-66
04/03/2013 04:18,groucho-tokyo,2114913189,TCP,,4445,135,126.15.3.165,JP,Japan,,,,35.69,139.69
04/03/2013 04:18,groucho-tokyo,3325323751,TCP,,6000,1433,198.52.105.231,US,United States,California,CA,91387,34.4065,-118.4015
04/03/2013 04:20,groucho-oregon,1995742611,TCP,,6000,3306,118.244.157.147,CN,China,Beijing Shi,11,,39.9289,116.3883
04/03/2013 04:21,groucho-oregon,1017974346,TCP,,6000,8080,60.173.14.74,CN,China,Anhui Sheng,34,,31.8639,117.2808
04/03/2013 04:21,groucho-singapore,1020790260,TCP,,6000,1433,60.216.5.244,CN,China,Shandong Sheng,37,,36.6683,116.9972
04/03/2013 04:21,groucho-eu,1540294482,TCP,,25,25,91.207.7.82,UA,Ukraine,Chernivets'ka Oblast',77,,48.5813,25.6599
04/03/2013 04:21,groucho-us-east,1017974346,TCP,,6000,8080,60.173.14.74,CN,China,Anhui Sheng,34,,31.8639,117.2808
04/03/2013 04:21,groucho-eu,1017974346,TCP,,6000,8080,60.173.14.74,CN,China,Anhui Sheng,34,,31.8639,117.2808
04/03/2013 04:24,groucho-oregon,3223226456,TCP,,6000,1433,192.30.136.88,US,United States,Nevada,NV,89027,36.7889,-114.1431
04/03/2013 04:25,groucho-oregon,3736745000,TCP,,6000,1433,222.186.52.40,CN,China,Jiangsu Sheng,32,,32.0617,118.7778
04/03/2013 04:26,groucho-oregon,3736745024,TCP,,6000,1433,222.186.52.64,CN,China,Jiangsu Sheng,32,,32.0617,118.7778
04/03/2013 04:26,groucho-tokyo,3054636724,TCP,,6000,1433,182.18.14.180,CN,China,Beijing Shi,11,,39.9289,116.3883
04/03/2013 04:27,groucho-oregon,1627302658,TCP,,53334,8080,96.254.171.2,US,United States,Florida,FL,34668,28.3031,-82.7048
04/03/2013 04:27,groucho-oregon,1627302658,TCP,,53334,8080,96.254.171.2,US,United States,Florida,FL,34668,28.3031,-82.7048
04/03/2013 04:29,groucho-tokyo,1017972899,TCP,,6000,8080,60.173.8.163,CN,China,Anhui Sheng,34,,31.8639,117.2808
04/03/2013 04:32,groucho-oregon,1965682167,TCP,,35346,1433,117.41.237.247,CN,China,Jiangxi Sheng,36,,28.55,115.9333
04/03/2013 04:35,zeppo-norcal,1029504902,TCP,,52645,3389,61.92.255.134,HK,Hong Kong,,,,22.2833,114.15
04/03/2013 04:36,groucho-oregon,1033959362,TCP,,6000,1433,61.160.247.194,CN,China,Jiangsu Sheng,32,,32.0617,118.7778
04/03/2013 04:36,groucho-oregon,2950064963,TCP,,8888,1433,175.214.107.67,KR,South Korea,,,,37.57,126.98
04/03/2013 04:36,groucho-norcal,1583755640,UDP,,40799,53,94.102.49.120,NL,Netherlands,,,,52.5,5.75
04/03/2013 04:36,zeppo-norcal,1583755640,UDP,,40799,53,94.102.49.120,NL,Netherlands,,,,52.5,5.75
04/03/2013 04:37,groucho-oregon,3735594210,TCP,,6000,1433,222.168.164.226,CN,China,Jilin Sheng,22,,43.88,125.3228
04/03/2013 04:38,groucho-oregon,1032051418,TCP,,6000,1433,61.131.218.218,CN,China,Jiangxi Sheng,36,,28.55,115.9333
04/03/2013 04:44,groucho-oregon,1017977401,TCP,,6000,1433,60.173.26.57,CN,China,Anhui Sheng,34,,31.8639,117.2808
04/03/2013 04:45,groucho-singapore,3663199766,TCP,,42485,1433,218.87.254.22,CN,China,Jiangxi Sheng,36,,28.55,115.9333
04/03/2013 04:46,groucho-singapore,3689796966,TCP,,6000,4899,219.237.213.102,CN,China,Beijing Shi,11,,39.9289,116.3883
04/03/2013 04:48,groucho-sydney,2496716295,TCP,,41777,80,148.208.222.7,MX,Mexico,The Federal District,DIF,,19.4342,-99.1386
04/03/2013 04:50,groucho-oregon,1627302658,TCP,,50762,1080,96.254.171.2,US,United States,Florida,FL,34668,28.3031,-82.7048
04/03/2013 04:50,zeppo-norcal,621360428,TCP,,45855,5900,37.9.53.44,RU,Russia,St.-Petersburg,SPE,,59.8944,30.2642
04/03/2013 04:52,groucho-oregon,1169129130,UDP,,36711,53,69.175.126.170,US,United States,Illinois,IL,60654,41.8876,-87.6368
04/03/2013 04:54,groucho-us-east,84516317,TCP,,60565,445,5.9.157.221,DE,Germany,,,,51,9
04/03/2013 04:54,groucho-us-east,84516317,TCP,,60565,445,5.9.157.221,DE,Germany,,,,51,9
04/03/2013 04:54,groucho-us-east,84516317,TCP,,60565,445,5.9.157.221,DE,Germany,,,,51,9
04/03/2013 04:54,groucho-eu,3323217522,TCP,,19944,6379,198.20.70.114,US,United States,Illinois,IL,60661,41.8825,-87.6441
04/03/2013 04:54,groucho-us-east,1583755640,UDP,,40799,53,94.102.49.120,NL,Netherlands,,,,52.5,5.75
04/03/2013 04:54,groucho-singapore,1583755640,UDP,,41675,53,94.102.49.120,NL,Netherlands,,,,52.5,5.75
04/03/2013 04:56,groucho-tokyo,621360428,TCP,,45855,5900,37.9.53.44,RU,Russia,St.-Petersburg,SPE,,59.8944,30.2642
04/03/2013 04:56,groucho-oregon,1894432379,TCP,,45972,1433,112.234.190.123,CN,China,Shandong Sheng,37,,36.6683,116.9972
04/03/2013 04:57,groucho-sydney,621360428,TCP,,45855,5900,37.9.53.44,RU,Russia,St.-Petersburg,SPE,,59.8944,30.2642
04/03/2013 04:59,groucho-tokyo,1904722351,TCP,,6000,1433,113.135.193.175,CN,China,Shaanxi,61,,34.2583,108.9286
04/03/2013 05:00,groucho-sydney,3699912417,UDP,,58468,14415,220.136.46.225,TW,Taiwan,Taipei,,,25.0392,121.525
04/03/2013 05:00,groucho-sydney,3699912417,UDP,,58468,14415,220.136.46.225,TW,Taiwan,Taipei,,,25.0392,121.525
04/03/2013 04:59,zeppo-norcal,2953454577,TCP,,21929,995,176.10.35.241,IS,Iceland,,,,65,-18
04/03/2013 05:01,groucho-sydney,3699912417,UDP,,58468,14415,220.136.46.225,TW,Taiwan,Taipei,,,25.0392,121.525
04/03/2013 05:01,groucho-sydney,3699912417,UDP,,58468,14415,220.136.46.225,TW,Taiwan,Taipei,,,25.0392,121.525
04/03/2013 05:03,groucho-oregon,1965603898,TCP,,53956,1433,117.40.188.58,CN,China,Jiangxi Sheng,36,,28.55,115.9333
04/03/2013 05:03,groucho-eu,1169129130,UDP,,60864,53,69.175.126.170,US,United States,Illinois,IL,60654,41.8876,-87.6368
04/03/2013 05:03,groucho-us-east,3548201377,TCP,,52158,80,211.125.65.161,JP,Japan,,,,35.69,139.69
04/03/2013 05:03,groucho-us-east,3548201377,TCP,,34845,8080,211.125.65.161,JP,Japan,,,,35.69,139.69
04/03/2013 05:03,groucho-oregon,3416049089,TCP,,61097,1433,203.156.197.193,CN,China,,,,35,105
04/03/2013 05:03,zeppo-norcal,1169129130,UDP,,60864,53,69.175.126.170,US,United States,Illinois,IL,60654,41.8876,-87.6368
04/03/2013 05:04,groucho-singapore,3231344203,TCP,,6000,1433,192.154.102.75,US,United States,California,CA,90017,34.053,-118.2642
04/03/2013 05:05,groucho-norcal,1169129130,UDP,,60864,53,69.175.126.170,US,United States,Illinois,IL,60654,41.8876,-87.6368
04/03/2013 05:06,groucho-sydney,1169129130,UDP,,60864,53,69.175.126.170,US,United States,Illinois,IL,60654,41.8876,-87.6368
04/03/2013 05:06,groucho-eu,3323217226,TCP,,23107,443,198.20.69.74,US,United States,Illinois,IL,60661,41.8825,-87.6441
04/03/2013 05:06,groucho-sa,1169129130,UDP,,60864,53,69.175.126.170,US,United States,Illinois,IL,60654,41.8876,-87.6368
04/03/2013 05:07,groucho-us-east,1169129130,UDP,,60864,53,69.175.126.170,US,United States,Illinois,IL,60654,41.8876,-87.6368
04/03/2013 05:08,groucho-eu,1583755640,UDP,,40799,53,94.102.49.120,NL,Netherlands,,,,52.5,5.75
04/03/2013 05:09,groucho-singapore,2013138955,TCP,,6000,135,119.254.16.11,CN,China,Beijing Shi,11,,39.9289,116.3883
04/03/2013 05:09,groucho-tokyo,1965603898,TCP,,5778,1433,117.40.188.58,CN,China,Jiangxi Sheng,36,,28.55,115.9333
04/03/2013 05:11,groucho-oregon,1019194042,TCP,,6000,1433,60.191.170.186,CN,China,Jiangsu Sheng,32,,32.4907,119.9081
04/03/2013 05:12,groucho-singapore,3394623162,TCP,,1276,1433,202.85.214.186,CN,China,,,,35,105
04/03/2013 05:15,groucho-oregon,1017974346,TCP,,6000,8080,60.173.14.74,CN,China,Anhui Sheng,34,,31.8639,117.2808
04/03/2013 05:15,groucho-tokyo,3639889826,TCP,,6000,1433,216.244.79.162,US,United States,Washington,WA,98168,47.4891,-122.2908
04/03/2013 05:16,groucho-us-east,1017974346,TCP,,6000,8080,60.173.14.74,CN,China,Anhui Sheng,34,,31.8639,117.2808
04/03/2013 05:16,groucho-eu,1017974346,TCP,,6000,8080,60.173.14.74,CN,China,Anhui Sheng,34,,31.8639,117.2808
04/03/2013 05:16,groucho-sa,621360386,TCP,,46793,5900,37.9.53.2,RU,Russia,St.-Petersburg,SPE,,59.8944,30.2642
04/03/2013 05:17,groucho-oregon,1962718941,TCP,,6000,1433,116.252.182.221,CN,China,Guangxi Zhuangzu Zizhiqu,45,,22.8167,108.3167
04/03/2013 05:18,groucho-oregon,1627302658,TCP,,42241,80,96.254.171.2,US,United States,Florida,FL,34668,28.3031,-82.7048
04/03/2013 05:18,groucho-oregon,1627302658,TCP,,42241,80,96.254.171.2,US,United States,Florida,FL,34668,28.3031,-82.7048
04/03/2013 05:21,groucho-sa,1076835298,UDP,,5062,5060,64.47.51.226,US,United States,,,,38,-97
04/03/2013 05:23,groucho-oregon,3689611647,TCP,,6000,1433,219.235.1.127,CN,China,Beijing Shi,11,,39.9289,116.3883
04/03/2013 05:23,groucho-tokyo,1904722351,TCP,,6000,1433,113.135.193.175,CN,China,Shaanxi,61,,34.2583,108.9286
04/03/2013 05:24,groucho-singapore,619135678,TCP,,10139,25,36.231.66.190,TW,Taiwan,,,,23.5,121
04/03/2013 05:25,groucho-singapore,1916977238,TCP,,47968,22,114.66.192.86,CN,China,Beijing Shi,11,,39.9289,116.3883
04/03/2013 05:29,groucho-tokyo,1017972899,TCP,,6000,8080,60.173.8.163,CN,China,Anhui Sheng,34,,31.8639,117.2808
04/03/2013 05:31,groucho-oregon,1286612578,UDP,,28337,48485,76.176.38.98,US,United States,California,CA,92081,33.2,-117.2425
04/03/2013 05:31,groucho-oregon,1286612578,UDP,,28337,48485,76.176.38.98,US,United States,California,CA,92081,33.2,-117.2425
04/03/2013 05:31,groucho-oregon,1286612578,UDP,,28337,48485,76.176.38.98,US,United States,California,CA,92081,33.2,-117.2425
04/03/2013 05:31,groucho-oregon,1286612578,UDP,,28337,48485,76.176.38.98,US,United States,California,CA,92081,33.2,-117.2425
04/03/2013 05:31,groucho-oregon,1286612578,UDP,,28337,48485,76.176.38.98,US,United States,California,CA,92081,33.2,-117.2425
04/03/2013 05:32,groucho-singapore,3091883745,TCP,,4553,445,184.74.102.225,US,United States,New York,NY,14424,42.8326,-77.3096
04/03/2013 05:32,groucho-oregon,1286612578,UDP,,28337,48485,76.176.38.98,US,United States,California,CA,92081,33.2,-117.2425
04/03/2013 05:32,groucho-oregon,1286612578,UDP,,28337,48485,76.176.38.98,US,United States,California,CA,92081,33.2,-117.2425
04/03/2013 05:34,groucho-sa,1896596178,TCP,,6000,1433,113.11.194.210,CN,China,Beijing Shi,11,,39.9289,116.3883
04/03/2013 05:34,groucho-tokyo,244021478,TCP,,4827,445,14.139.120.230,IN,India,State of Maharashtra,MH,,21.0486,76.5344
04/03/2013 05:34,groucho-tokyo,244021478,TCP,,4827,445,14.139.120.230,IN,India,State of Maharashtra,MH,,21.0486,76.5344
04/03/2013 05:35,groucho-oregon,1032051418,TCP,,6000,1433,61.131.218.218,CN,China,Jiangxi Sheng,36,,28.55,115.9333
04/03/2013 05:36,groucho-norcal,1729413961,TCP,,6000,445,103.20.195.73,HK,Hong Kong,,,,22.25,114.1667
04/03/2013 05:37,groucho-sydney,1729413961,TCP,,6000,445,103.20.195.73,HK,Hong Kong,,,,22.25,114.1667
04/03/2013 05:37,groucho-oregon,3074223453,TCP,,6000,1433,183.60.237.93,CN,China,Guangdong,44,,23.1167,113.25
04/03/2013 05:38,groucho-tokyo,2111035435,TCP,,6000,3389,125.211.216.43,CN,China,Heilongjiang Sheng,23,,45.75,126.65
04/03/2013 05:39,groucho-us-east,2379512144,TCP,,51171,443,141.212.121.80,US,United States,Michigan,MI,48109,42.2923,-83.7145
04/03/2013 05:39,groucho-oregon,3231346276,TCP,,6000,1433,192.154.110.100,US,United States,California,CA,90017,34.053,-118.2642
04/03/2013 05:41,groucho-oregon,775076346,UDP,,35691,48485,46.50.185.250,RU,Russia,Altayskiy Kray,ALT,,53.3606,83.7636
04/03/2013 05:41,groucho-oregon,775076346,UDP,,35691,48485,46.50.185.250,RU,Russia,Altayskiy Kray,ALT,,53.3606,83.7636
04/03/2013 05:41,groucho-oregon,775076346,UDP,,35691,48485,46.50.185.250,RU,Russia,Altayskiy Kray,ALT,,53.3606,83.7636
04/03/2013 05:41,groucho-oregon,775076346,UDP,,35691,48485,46.50.185.250,RU,Russia,Altayskiy Kray,ALT,,53.3606,83.7636
04/03/2013 05:42,groucho-oregon,775076346,UDP,,35691,48485,46.50.185.250,RU,Russia,Altayskiy Kray,ALT,,53.3606,83.7636
04/03/2013 05:42,groucho-oregon,775076346,UDP,,35691,48485,46.50.185.250,RU,Russia,Altayskiy Kray,ALT,,53.3606,83.7636
04/03/2013 05:42,groucho-oregon,775076346,UDP,,35691,48485,46.50.185.250,RU,Russia,Altayskiy Kray,ALT,,53.3606,83.7636
04/03/2013 05:45,groucho-oregon,3138109186,ICMP,8,,,187.11.191.2,BR,Brazil,,,,-10,-55
04/03/2013 05:45,groucho-oregon,3138109186,ICMP,8,,,187.11.191.2,BR,Brazil,,,,-10,-55
04/03/2013 05:45,groucho-oregon,3138109186,ICMP,8,,,187.11.191.2,BR,Brazil,,,,-10,-55
04/03/2013 05:45,groucho-oregon,3138109186,ICMP,8,,,187.11.191.2,BR,Brazil,,,,-10,-55
04/03/2013 05:47,groucho-sydney,1583755640,UDP,,40799,53,94.102.49.120,NL,Netherlands,,,,52.5,5.75
04/03/2013 05:47,groucho-singapore,2054373059,TCP,,6000,23,122.115.62.195,CN,China,Henan Sheng,41,,34.6836,113.5325
04/03/2013 05:50,groucho-oregon,2073368071,TCP,,6000,1433,123.149.22.7,CN,China,Henan Sheng,41,,34.6836,113.5325
04/03/2013 05:51,groucho-sa,1965682167,TCP,,16981,1433,117.41.237.247,CN,China,Jiangxi Sheng,36,,28.55,115.9333
04/03/2013 05:50,groucho-norcal,1965682167,TCP,,26408,1433,117.41.237.247,CN,China,Jiangxi Sheng,36,,28.55,115.9333
04/03/2013 05:51,zeppo-norcal,1965682167,TCP,,33240,1433,117.41.237.247,CN,China,Jiangxi Sheng,36,,28.55,115.9333
04/03/2013 05:51,groucho-us-east,1965682167,TCP,,30371,1433,117.41.237.247,CN,China,Jiangxi Sheng,36,,28.55,115.9333
04/03/2013 05:52,groucho-eu,1965682167,TCP,,11541,1433,117.41.237.247,CN,China,Jiangxi Sheng,36,,28.55,115.9333
04/03/2013 05:52,groucho-sydney,1965682167,TCP,,21415,1433,117.41.237.247,CN,China,Jiangxi Sheng,36,,28.55,115.9333
04/03/2013 05:55,groucho-eu,3528238040,ICMP,8,,,210.76.163.216,CN,China,Liaoning,21,,41.7922,123.4328
04/03/2013 05:55,groucho-eu,3528238040,ICMP,8,,,210.76.163.216,CN,China,Liaoning,21,,41.7922,123.4328
04/03/2013 05:55,groucho-singapore,3395877833,ICMP,8,,,202.104.251.201,CN,China,Guangdong,44,,23.1167,113.25
04/03/2013 05:55,groucho-singapore,3395877833,ICMP,8,,,202.104.251.201,CN,China,Guangdong,44,,23.1167,113.25
04/03/2013 05:56,groucho-oregon,1033959362,TCP,,6000,1433,61.160.247.194,CN,China,Jiangsu Sheng,32,,32.0617,118.7778
04/03/2013 05:59,groucho-us-east,1928794638,UDP,,5060,5060,114.247.18.14,CN,China,Beijing Shi,11,,39.9289,116.3883
04/03/2013 06:01,groucho-tokyo,1730099496,TCP,,6000,1433,103.31.57.40,CN,China,,,,35,105
04/03/2013 06:01,groucho-singapore,1987773960,TCP,,6000,3389,118.123.6.8,CN,China,Sichuan Sheng,51,,30.6667,104.0667
04/03/2013 06:04,groucho-tokyo,1000686117,TCP,,35186,23,59.165.66.37,IN,India,Union Territory of Chandigarh,CH,,30.7343,76.7933
04/03/2013 06:04,groucho-singapore,3740323306,TCP,,19956,1433,222.240.205.234,CN,China,Hunan,43,,28.1792,113.1136
04/03/2013 06:05,groucho-tokyo,1928794638,UDP,,5060,5060,114.247.18.14,CN,China,Beijing Shi,11,,39.9289,116.3883
04/03/2013 06:05,groucho-oregon,1995742780,TCP,,6000,1433,118.244.158.60,CN,China,Beijing Shi,11,,39.9289,116.3883
04/03/2013 06:05,groucho-singapore,3549415508,TCP,,27063,3389,211.143.200.84,CN,China,Fujian,35,,26.0614,119.3061
04/03/2013 06:05,groucho-tokyo,3549415508,TCP,,34048,3389,211.143.200.84,CN,China,Fujian,35,,26.0614,119.3061
04/03/2013 06:07,groucho-oregon,975981815,TCP,,52580,1433,58.44.76.247,CN,China,Hunan,43,,28.1792,113.1136
04/03/2013 06:09,groucho-oregon,1583755640,UDP,,49917,53,94.102.49.120,NL,Netherlands,,,,52.5,5.75
04/03/2013 06:10,groucho-oregon,3639889826,TCP,,1037,1433,216.244.79.162,US,United States,Washington,WA,98168,47.4891,-122.2908
04/03/2013 06:11,groucho-sydney,922490936,ICMP,8,,,54.252.24.56,AU,Australia,New South Wales,NSW,,-33.8615,151.2055
04/03/2013 06:11,groucho-sydney,922490936,ICMP,8,,,54.252.24.56,AU,Australia,New South Wales,NSW,,-33.8615,151.2055
04/03/2013 06:11,groucho-sydney,922490936,TCP,,53812,80,54.252.24.56,AU,Australia,New South Wales,NSW,,-33.8615,151.2055
04/03/2013 06:11,groucho-sydney,922490936,TCP,,43520,443,54.252.24.56,AU,Australia,New South Wales,NSW,,-33.8615,151.2055
04/03/2013 06:13,groucho-oregon,1861846022,TCP,,6000,1433,110.249.132.6,CN,China,Hebei,13,,39.8897,115.275
04/03/2013 06:15,groucho-sa,214991554,UDP,,5062,5060,12.208.130.194,US,United States,Mississippi,MS,39271,32.3113,-90.3972
04/03/2013 06:15,groucho-singapore,1263583047,UDP,,51413,38161,75.80.191.71,US,United States,California,CA,92130,32.957,-117.1979
04/03/2013 06:15,groucho-singapore,1263583047,UDP,,51413,38161,75.80.191.71,US,United States,California,CA,92130,32.957,-117.1979
04/03/2013 06:15,groucho-singapore,1263583047,UDP,,51413,38161,75.80.191.71,US,United States,California,CA,92130,32.957,-117.1979
04/03/2013 06:16,groucho-singapore,1263583047,UDP,,51413,38161,75.80.191.71,US,United States,California,CA,92130,32.957,-117.1979
04/03/2013 06:16,groucho-oregon,1017974346,TCP,,6000,8080,60.173.14.74,CN,China,Anhui Sheng,34,,31.8639,117.2808
04/03/2013 06:17,groucho-us-east,1017974346,TCP,,6000,8080,60.173.14.74,CN,China,Anhui Sheng,34,,31.8639,117.2808
04/03/2013 06:17,groucho-eu,1017974346,TCP,,6000,8080,60.173.14.74,CN,China,Anhui Sheng,34,,31.8639,117.2808
04/03/2013 06:19,groucho-tokyo,2025896316,ICMP,8,,,120.192.185.124,CN,China,,,,35,105
04/03/2013 06:19,groucho-tokyo,2025896316,ICMP,8,,,120.192.185.124,CN,China,,,,35,105
04/03/2013 06:21,groucho-oregon,625719608,TCP,,38086,23,37.75.185.56,DK,Denmark,North Denmark,81,,57.0355,9.9412
04/03/2013 06:21,groucho-oregon,625719608,TCP,,38086,23,37.75.185.56,DK,Denmark,North Denmark,81,,57.0355,9.9412
04/03/2013 06:21,groucho-oregon,1965603898,TCP,,20082,1433,117.40.188.58,CN,China,Jiangxi Sheng,36,,28.55,115.9333
04/03/2013 06:22,groucho-oregon,1017977401,TCP,,6000,1433,60.173.26.57,CN,China,Anhui Sheng,34,,31.8639,117.2808
04/03/2013 06:23,groucho-oregon,3639889826,TCP,,6000,1433,216.244.79.162,US,United States,Washington,WA,98168,47.4891,-122.2908
04/03/2013 06:25,zeppo-norcal,698366562,TCP,,3267,3389,41.160.58.98,ZA,South Africa,Gauteng,GP,,-25.9971,28.1299
04/03/2013 06:27,groucho-sa,621360428,TCP,,45855,5900,37.9.53.44,RU,Russia,St.-Petersburg,SPE,,59.8944,30.2642
04/03/2013 06:26,groucho-norcal,1398812398,TCP,,16362,445,83.96.46.238,KW,Kuwait,Al Asimah,KU,,29.3697,47.9783
04/03/2013 06:28,groucho-singapore,1728502935,TCP,,6000,3306,103.6.220.151,CN,China,,,,35,105
04/03/2013 06:29,groucho-norcal,830753657,UDP,,32620,40938,49.132.75.121,JP,Japan,,,,35.69,139.69
04/03/2013 06:29,groucho-norcal,830753657,UDP,,32620,40938,49.132.75.121,JP,Japan,,,,35.69,139.69
04/03/2013 06:29,groucho-norcal,830753657,UDP,,32620,40938,49.132.75.121,JP,Japan,,,,35.69,139.69
04/03/2013 06:30,groucho-oregon,3485521202,TCP,,52644,5900,207.192.213.50,US,United States,,,,38,-97
04/03/2013 06:30,groucho-oregon,1032051418,TCP,,6000,1433,61.131.218.218,CN,China,Jiangxi Sheng,36,,28.55,115.9333
04/03/2013 06:32,groucho-oregon,2947837593,TCP,,2939,1080,175.180.110.153,TW,Taiwan,Taipei,,,25.0392,121.525
04/03/2013 06:35,groucho-norcal,179181731,UDP,,67,68,10.174.24.163,,,,,,,
04/03/2013 06:36,groucho-norcal,1076835298,UDP,,5062,5060,64.47.51.226,US,United States,,,,38,-97
04/03/2013 06:37,zeppo-norcal,1076835298,UDP,,5062,5060,64.47.51.226,US,United States,,,,38,-97
04/03/2013 06:38,groucho-singapore,3727785886,TCP,,8888,1433,222.49.127.158,CN,China,Beijing Shi,11,,39.9289,116.3883
04/03/2013 06:38,groucho-singapore,3727785886,TCP,,8888,3306,222.49.127.158,CN,China,Beijing Shi,11,,39.9289,116.3883
04/03/2013 06:38,groucho-singapore,3727785886,TCP,,8888,3128,222.49.127.158,CN,China,Beijing Shi,11,,39.9289,116.3883
04/03/2013 06:43,groucho-tokyo,3719364262,TCP,,6000,1433,221.176.254.166,CN,China,,,,35,105
04/03/2013 06:43,groucho-tokyo,621360386,TCP,,46793,5900,37.9.53.2,RU,Russia,St.-Petersburg,SPE,,59.8944,30.2642
04/03/2013 06:44,groucho-sydney,621360386,TCP,,46793,5900,37.9.53.2,RU,Russia,St.-Petersburg,SPE,,59.8944,30.2642
04/03/2013 06:44,groucho-oregon,3231346276,TCP,,6000,1433,192.154.110.100,US,United States,California,CA,90017,34.053,-118.2642
04/03/2013 06:45,groucho-singapore,2026324022,TCP,,41988,22,120.199.64.54,CN,China,,,,35,105
04/03/2013 06:45,groucho-singapore,2026324022,TCP,,41988,22,120.199.64.54,CN,China,,,,35,105
04/03/2013 06:45,groucho-oregon,1033070524,TCP,,6000,1433,61.147.103.188,CN,China,Jiangsu Sheng,32,,32.0617,118.7778
04/03/2013 06:45,groucho-us-east,627675787,TCP,,4935,3389,37.105.146.139,SA,Saudi Arabia,,,,25,45
04/03/2013 06:46,groucho-us-east,181048468,UDP,,67,68,10.202.148.148,,,,,,,
04/03/2013 06:46,groucho-singapore,1995736177,TCP,,6000,3389,118.244.132.113,CN,China,Beijing Shi,11,,39.9289,116.3883
04/03/2013 06:48,groucho-oregon,3736745024,TCP,,6000,1433,222.186.52.64,CN,China,Jiangsu Sheng,32,,32.0617,118.7778
04/03/2013 06:49,groucho-oregon,1989170793,TCP,,6000,3306,118.144.86.105,CN,China,Beijing Shi,11,,39.9289,116.3883
04/03/2013 06:48,groucho-norcal,3323217250,TCP,,41499,995,198.20.69.98,US,United States,Illinois,IL,60661,41.8825,-87.6441
04/03/2013 06:50,groucho-oregon,1031947814,TCP,,6000,1433,61.130.70.38,CN,China,,,,35,105
04/03/2013 06:51,groucho-tokyo,2030978824,TCP,,6000,1433,121.14.71.8,CN,China,Guangdong,44,,23.1167,113.25
04/03/2013 06:51,groucho-sydney,3550629683,TCP,,43876,5900,211.162.79.51,CN,China,Beijing Shi,11,,39.9289,116.3883
04/03/2013 06:52,groucho-norcal,3031927587,ICMP,8,,,180.183.139.35,TH,Thailand,Bangkok,10,,13.754,100.5014
04/03/2013 06:52,groucho-norcal,3031927587,ICMP,8,,,180.183.139.35,TH,Thailand,Bangkok,10,,13.754,100.5014
04/03/2013 06:57,groucho-oregon,3708064002,TCP,,6000,3306,221.4.145.2,CN,China,Guangdong,44,,23.1167,113.25
04/03/2013 07:00,groucho-us-east,1980267656,UDP,,1030,137,118.8.124.136,JP,Japan,Tokyo-to,13,,35.685,139.7514
04/03/2013 07:01,groucho-sa,1879435894,TCP,,3205,1433,112.5.234.118,CN,China,Fujian,35,,24.9139,118.5858
04/03/2013 07:01,groucho-us-east,1076835298,UDP,,5062,5060,64.47.51.226,US,United States,,,,38,-97
04/03/2013 07:02,groucho-us-east,2954825244,TCP,,12308,80,176.31.14.28,FR,France,,,,48.86,2.35
04/03/2013 07:02,groucho-us-east,2954825244,TCP,,12308,80,176.31.14.28,FR,France,,,,48.86,2.35
04/03/2013 07:02,groucho-us-east,2954825244,TCP,,12308,80,176.31.14.28,FR,France,,,,48.86,2.35
04/03/2013 07:02,groucho-us-east,2954825244,TCP,,12308,80,176.31.14.28,FR,France,,,,48.86,2.35
04/03/2013 07:02,groucho-tokyo,2111035435,TCP,,6000,3389,125.211.216.43,CN,China,Heilongjiang Sheng,23,,45.75,126.65
04/03/2013 07:04,groucho-sa,2026273913,TCP,,49408,8080,120.198.124.121,CN,China,,,,35,105
04/03/2013 07:04,groucho-singapore,3082750996,TCP,,49480,1433,183.191.12.20,CN,China,Shanxi Sheng,14,,37.7269,112.4708
04/03/2013 07:04,groucho-singapore,3082750996,TCP,,49610,3306,183.191.12.20,CN,China,Shanxi Sheng,14,,37.7269,112.4708
04/03/2013 07:04,groucho-singapore,3082750996,TCP,,49615,8082,183.191.12.20,CN,China,Shanxi Sheng,14,,37.7269,112.4708
04/03/2013 07:05,groucho-eu,1984379744,UDP,,16726,3544,118.71.59.96,VN,Vietnam,,,,16,106
04/03/2013 07:05,groucho-sa,3485521202,TCP,,25937,5900,207.192.213.50,US,United States,,,,38,-97
04/03/2013 07:05,zeppo-norcal,3485521202,TCP,,25937,5900,207.192.213.50,US,United States,,,,38,-97
04/03/2013 07:04,groucho-norcal,3485521202,TCP,,25937,5900,207.192.213.50,US,United States,,,,38,-97
04/03/2013 07:05,groucho-us-east,3485521202,TCP,,25937,5900,207.192.213.50,US,United States,,,,38,-97
04/03/2013 07:06,groucho-eu,3485521202,TCP,,25937,5900,207.192.213.50,US,United States,,,,38,-97
04/03/2013 07:06,groucho-sydney,3485521202,TCP,,25937,5900,207.192.213.50,US,United States,,,,38,-97
04/03/2013 07:06,zeppo-norcal,1896596178,TCP,,6000,1433,113.11.194.210,CN,China,Beijing Shi,11,,39.9289,116.3883
04/03/2013 07:05,groucho-norcal,1896596178,TCP,,6000,1433,113.11.194.210,CN,China,Beijing Shi,11,,39.9289,116.3883
04/03/2013 07:06,groucho-tokyo,1035975857,TCP,,6000,3389,61.191.188.177,CN,China,Anhui Sheng,34,,31.8639,117.2808
04/03/2013 07:08,groucho-singapore,3740308190,TCP,,6000,4899,222.240.146.222,CN,China,Hunan,43,,28.1792,113.1136
04/03/2013 07:09,groucho-sa,1583755640,UDP,,58284,53,94.102.49.120,NL,Netherlands,,,,52.5,5.75
04/03/2013 07:09,groucho-oregon,3705906242,TCP,,31458,22,220.227.164.66,IN,India,State of Maharashtra,MH,,18.975,72.8258
04/03/2013 07:08,groucho-norcal,1879435894,TCP,,4755,1433,112.5.234.118,CN,China,Fujian,35,,24.9139,118.5858
04/03/2013 07:09,zeppo-norcal,1879435894,TCP,,4759,1433,112.5.234.118,CN,China,Fujian,35,,24.9139,118.5858
04/03/2013 07:09,groucho-norcal,214991554,UDP,,5062,5060,12.208.130.194,US,United States,Mississippi,MS,39271,32.3113,-90.3972
04/03/2013 07:09,zeppo-norcal,214991554,UDP,,5062,5060,12.208.130.194,US,United States,Mississippi,MS,39271,32.3113,-90.3972
04/03/2013 07:11,groucho-singapore,3394623162,TCP,,34649,1433,202.85.214.186,CN,China,,,,35,105
04/03/2013 07:12,groucho-singapore,3736743325,TCP,,6000,6666,222.186.45.157,CN,China,Jiangsu Sheng,32,,32.0617,118.7778
04/03/2013 07:13,groucho-tokyo,1886667588,TCP,,55535,3306,112.116.67.68,CN,China,Yunnan,53,,25.0389,102.7183
04/03/2013 07:13,groucho-tokyo,1886667588,TCP,,55556,1433,112.116.67.68,CN,China,Yunnan,53,,25.0389,102.7183
04/03/2013 07:14,groucho-singapore,1017974346,TCP,,6000,8080,60.173.14.74,CN,China,Anhui Sheng,34,,31.8639,117.2808
04/03/2013 07:14,groucho-us-east,1996153487,TCP,,56860,23,118.250.226.143,CN,China,Hunan,43,,28.1792,113.1136
04/03/2013 07:14,zeppo-norcal,2822732663,TCP,,1440,3389,168.63.123.119,US,United States,,,,38,-97
04/03/2013 07:14,zeppo-norcal,2822732663,TCP,,1441,3389,168.63.123.119,US,United States,,,,38,-97
04/03/2013 07:16,groucho-oregon,3583290558,TCP,,6000,3306,213.148.172.190,RU,Russia,Novgorodskaya Oblast',NGR,,58.5167,31.2833
04/03/2013 07:15,zeppo-norcal,2000422162,TCP,,49310,3389,119.60.5.18,CN,China,Ningxia Huizu Zizhiqu,64,,38.4681,106.2731
04/03/2013 07:18,groucho-us-east,2064077654,TCP,,3055,3389,123.7.83.86,CN,China,Henan Sheng,41,,34.6836,113.5325
04/03/2013 07:18,groucho-us-east,1879435894,TCP,,26350,1433,112.5.234.118,CN,China,Fujian,35,,24.9139,118.5858
04/03/2013 07:19,groucho-tokyo,2921702817,UDP,,5060,5060,174.37.165.161,US,United States,Washington,WA,,47.6062,-122.3321
04/03/2013 07:21,groucho-eu,1076835298,UDP,,5062,5060,64.47.51.226,US,United States,,,,38,-97
04/03/2013 07:21,groucho-tokyo,1730020976,TCP,,8888,1433,103.30.6.112,HK,Hong Kong,,,,22.25,114.1667
04/03/2013 07:22,groucho-tokyo,3392489498,TCP,,8888,1433,202.53.72.26,IN,India,State of Andhra Pradesh,AP,,17.3753,78.4744
04/03/2013 07:22,groucho-eu,1879435894,TCP,,7810,1433,112.5.234.118,CN,China,Fujian,35,,24.9139,118.5858
04/03/2013 07:24,groucho-tokyo,2013588001,TCP,,45052,3389,120.4.234.33,CN,China,Hebei,13,,39.8897,115.275
04/03/2013 07:24,groucho-oregon,1653548224,TCP,,30269,8123,98.143.36.192,US,United States,Arizona,AZ,85281,33.4357,-111.9171
04/03/2013 07:24,groucho-tokyo,2013588001,TCP,,45052,3389,120.4.234.33,CN,China,Hebei,13,,39.8897,115.275
04/03/2013 07:25,groucho-tokyo,2013588001,TCP,,45052,3389,120.4.234.33,CN,China,Hebei,13,,39.8897,115.275
04/03/2013 07:25,groucho-oregon,1032051418,TCP,,6000,1433,61.131.218.218,CN,China,Jiangxi Sheng,36,,28.55,115.9333
04/03/2013 07:25,groucho-singapore,1020790260,TCP,,6000,1433,60.216.5.244,CN,China,Shandong Sheng,37,,36.6683,116.9972
04/03/2013 07:25,groucho-norcal,3583290558,TCP,,6000,3306,213.148.172.190,RU,Russia,Novgorodskaya Oblast',NGR,,58.5167,31.2833
04/03/2013 07:25,zeppo-norcal,3583290558,TCP,,6000,3306,213.148.172.190,RU,Russia,Novgorodskaya Oblast',NGR,,58.5167,31.2833
04/03/2013 07:26,groucho-oregon,2102366516,TCP,,6000,1433,125.79.145.52,CN,China,Fujian,35,,26.0614,119.3061
04/03/2013 07:26,groucho-singapore,3074275675,TCP,,6000,1433,183.61.185.91,CN,China,Guangdong,44,,23.1167,113.25
04/03/2013 07:26,groucho-us-east,214991554,UDP,,5062,5060,12.208.130.194,US,United States,Mississippi,MS,39271,32.3113,-90.3972
04/03/2013 07:29,groucho-singapore,2054505713,TCP,,43460,23,122.117.68.241,TW,Taiwan,Taipei,,,25.0392,121.525
04/03/2013 07:30,groucho-tokyo,1963421642,UDP,,49763,20029,117.7.111.202,VN,Vietnam,Thanh Pho Ha Noi,64,,21.0333,105.85
04/03/2013 07:34,groucho-sydney,1879435894,TCP,,14806,1433,112.5.234.118,CN,China,Fujian,35,,24.9139,118.5858
04/03/2013 07:35,groucho-oregon,3346199684,TCP,,6000,1433,199.114.244.132,US,United States,California,CA,94536,37.567,-121.9829
04/03/2013 07:38,groucho-oregon,1929090693,TCP,,58626,443,114.251.150.133,CN,China,Beijing Shi,11,,39.9289,116.3883
04/03/2013 07:38,groucho-tokyo,520838703,TCP,,4543,445,31.11.94.47,MK,Macedonia,Opstina Karpos,38,,42,21.4333
04/03/2013 07:38,groucho-tokyo,520838703,TCP,,4543,445,31.11.94.47,MK,Macedonia,Opstina Karpos,38,,42,21.4333
04/03/2013 07:40,groucho-sa,1936825283,TCP,,60972,3389,115.113.155.195,IN,India,State of Maharashtra,MH,,18.5333,73.8667
04/03/2013 07:40,groucho-sa,1936825283,TCP,,60973,3389,115.113.155.195,IN,India,State of Maharashtra,MH,,18.5333,73.8667
04/03/2013 07:40,groucho-oregon,1965603898,TCP,,62700,1433,117.40.188.58,CN,China,Jiangxi Sheng,36,,28.55,115.9333
04/03/2013 07:41,groucho-tokyo,2966940815,TCP,,4791,445,176.215.236.143,RU,Russia,Irkutskaya Oblast',IRK,,52.2978,104.2964
04/03/2013 07:41,groucho-tokyo,2966940815,TCP,,4791,445,176.215.236.143,RU,Russia,Irkutskaya Oblast',IRK,,52.2978,104.2964
04/03/2013 07:41,groucho-eu,214991554,UDP,,5064,5060,12.208.130.194,US,United States,Mississippi,MS,39271,32.3113,-90.3972
04/03/2013 07:44,groucho-oregon,3235001155,TCP,,6000,1433,192.210.51.67,US,United States,California,CA,91789,34.0115,-117.8535
04/03/2013 07:46,groucho-tokyo,1965603898,TCP,,29327,1433,117.40.188.58,CN,China,Jiangxi Sheng,36,,28.55,115.9333
04/03/2013 07:48,groucho-sa,1052196178,ICMP,8,,,62.183.61.82,RU,Russia,,,,60,100
04/03/2013 07:48,groucho-sa,1052196178,ICMP,8,,,62.183.61.82,RU,Russia,,,,60,100
04/03/2013 07:49,groucho-us-east,3707946434,TCP,,54805,3389,221.2.197.194,CN,China,Shandong Sheng,37,,36.6683,116.9972
04/03/2013 07:52,groucho-oregon,1035941732,TCP,,6000,1433,61.191.55.100,CN,China,Anhui Sheng,34,,31.8639,117.2808
04/03/2013 07:56,groucho-tokyo,1495584284,TCP,,2852,445,89.36.206.28,RO,Romania,Judetul Calarasi,CL,,44.2,27.3333
04/03/2013 07:56,groucho-tokyo,1495584284,TCP,,2852,445,89.36.206.28,RO,Romania,Judetul Calarasi,CL,,44.2,27.3333
04/03/2013 08:00,groucho-us-east,3527243174,TCP,,38274,23,210.61.117.166,TW,Taiwan,T'ai-chung Hsien,TXG,,24.1433,120.6814
04/03/2013 08:01,groucho-tokyo,1033071447,TCP,,6000,1433,61.147.107.87,CN,China,Jiangsu Sheng,32,,32.0617,118.7778
04/03/2013 08:03,groucho-singapore,3738622573,TCP,,6000,3306,222.214.218.109,CN,China,Sichuan Sheng,51,,30.6667,104.0667
04/03/2013 08:04,groucho-sa,3094011097,TCP,,6066,22,184.106.220.217,US,United States,Texas,TX,78218,29.4889,-98.3987
04/03/2013 08:05,groucho-tokyo,1001187910,TCP,,8888,1433,59.172.234.70,CN,China,Hubei,42,,30.5801,114.2734
04/03/2013 08:05,groucho-tokyo,3373111148,TCP,,1442,445,201.13.151.108,BR,Brazil,Estado de Sao Paulo,SP,,-23.4733,-46.6658
04/03/2013 08:05,groucho-tokyo,3373111148,TCP,,1442,445,201.13.151.108,BR,Brazil,Estado de Sao Paulo,SP,,-23.4733,-46.6658
04/03/2013 08:05,groucho-singapore,1033445515,ICMP,8,,,61.153.32.139,CN,China,,,,35,105
04/03/2013 08:05,groucho-singapore,1033445515,ICMP,8,,,61.153.32.139,CN,China,,,,35,105
04/03/2013 08:06,groucho-us-east,2039796220,UDP,,51330,3544,121.148.209.252,KR,South Korea,,,,37.57,126.98
04/03/2013 08:06,groucho-singapore,1033070424,TCP,,6000,1433,61.147.103.88,CN,China,Jiangsu Sheng,32,,32.0617,118.7778
04/03/2013 08:06,zeppo-norcal,3094011097,TCP,,6066,22,184.106.220.217,US,United States,Texas,TX,78218,29.4889,-98.3987
04/03/2013 08:05,groucho-norcal,3094011097,TCP,,6066,22,184.106.220.217,US,United States,Texas,TX,78218,29.4889,-98.3987
04/03/2013 08:07,groucho-us-east,3094011097,TCP,,6066,22,184.106.220.217,US,United States,Texas,TX,78218,29.4889,-98.3987
04/03/2013 08:08,groucho-eu,3094011097,TCP,,6066,22,184.106.220.217,US,United States,Texas,TX,78218,29.4889,-98.3987
04/03/2013 08:08,groucho-oregon,3031682570,TCP,,12101,8080,180.179.206.10,IN,India,,,,20,77
04/03/2013 08:09,groucho-sydney,621360428,TCP,,45855,5900,37.9.53.44,RU,Russia,St.-Petersburg,SPE,,59.8944,30.2642
04/03/2013 08:09,groucho-sydney,3094011097,TCP,,6066,22,184.106.220.217,US,United States,Texas,TX,78218,29.4889,-98.3987
04/03/2013 08:10,groucho-sydney,1076835298,UDP,,5062,5060,64.47.51.226,US,United States,,,,38,-97
04/03/2013 08:11,groucho-singapore,3726901485,TCP,,6000,1433,222.36.0.237,CN,China,Beijing Shi,11,,39.9289,116.3883
04/03/2013 08:13,groucho-oregon,2073368071,TCP,,6000,1433,123.149.22.7,CN,China,Henan Sheng,41,,34.6836,113.5325
04/03/2013 08:16,groucho-sydney,214991554,UDP,,5064,5060,12.208.130.194,US,United States,Mississippi,MS,39271,32.3113,-90.3972
04/03/2013 08:16,groucho-sydney,1991963003,TCP,,3443,445,118.186.241.123,CN,China,Beijing Shi,11,,39.9289,116.3883
04/03/2013 08:16,groucho-sydney,1991963003,TCP,,3443,445,118.186.241.123,CN,China,Beijing Shi,11,,39.9289,116.3883
04/03/2013 08:17,groucho-oregon,3703715398,TCP,,6000,3306,220.194.54.70,CN,China,Beijing Shi,11,,39.9289,116.3883
04/03/2013 08:18,groucho-tokyo,1582538859,TCP,,4579,445,94.83.160.107,IT,Italy,,,,42.8333,12.8333
04/03/2013 08:18,groucho-tokyo,1582538859,TCP,,4579,445,94.83.160.107,IT,Italy,,,,42.8333,12.8333
04/03/2013 08:19,groucho-tokyo,3658020275,TCP,,6000,1433,218.8.245.179,CN,China,Heilongjiang Sheng,23,,45.75,126.65
04/03/2013 08:22,groucho-oregon,1032051418,TCP,,6000,1433,61.131.218.218,CN,China,Jiangxi Sheng,36,,28.55,115.9333
04/03/2013 08:24,groucho-oregon,3639889826,TCP,,1037,1433,216.244.79.162,US,United States,Washington,WA,98168,47.4891,-122.2908
04/03/2013 08:24,groucho-singapore,3322765372,TCP,,6000,1433,198.13.96.60,US,United States,California,CA,91789,34.0115,-117.8535
04/03/2013 08:25,groucho-tokyo,782621898,ICMP,3,,,46.165.220.202,DE,Germany,,,,51,9
04/03/2013 08:27,groucho-tokyo,3322765372,TCP,,6000,1433,198.13.96.60,US,United States,California,CA,91789,34.0115,-117.8535
04/03/2013 08:30,groucho-oregon,1945101789,TCP,,3334,1433,115.239.229.221,CN,China,Zhejiang Sheng,33,,30.2936,120.1614
04/03/2013 08:29,groucho-norcal,3314814671,TCP,,3237,3389,197.148.14.207,AO,Angola,Luanda Province,LUA,,-8.8368,13.2332
04/03/2013 08:29,groucho-norcal,3314814671,TCP,,3237,3389,197.148.14.207,AO,Angola,Luanda Province,LUA,,-8.8368,13.2332
04/03/2013 08:30,groucho-oregon,1034205964,TCP,,6000,3306,61.164.187.12,CN,China,,,,35,105
04/03/2013 08:31,groucho-sa,3357745722,TCP,,49364,5000,200.35.34.58,CO,Colombia,Antioquia,ANT,,6.2518,-75.5636
04/03/2013 08:32,groucho-oregon,3074223453,TCP,,6000,1433,183.60.237.93,CN,China,Guangdong,44,,23.1167,113.25
04/03/2013 08:34,groucho-oregon,1438377868,ICMP,8,,,85.187.231.140,BG,Bulgaria,,,,43,25
04/03/2013 08:34,groucho-oregon,1438377868,ICMP,8,,,85.187.231.140,BG,Bulgaria,,,,43,25
04/03/2013 08:34,groucho-oregon,1438377868,ICMP,8,,,85.187.231.140,BG,Bulgaria,,,,43,25
04/03/2013 08:34,groucho-oregon,1438377868,ICMP,8,,,85.187.231.140,BG,Bulgaria,,,,43,25
04/03/2013 08:35,groucho-oregon,3350492485,UDP,,5065,5060,199.180.117.69,US,United States,Pennsylvania,PA,18411,41.4486,-75.728
04/03/2013 08:35,groucho-oregon,1822661780,UDP,,5067,5060,108.163.156.148,CA,Canada,Quebec,QC,H8N,45.4551,-73.6084
04/03/2013 08:36,groucho-sydney,3683780686,UDP,,54790,5060,219.146.8.78,CN,China,Shandong Sheng,37,,36.6683,116.9972
04/03/2013 08:37,groucho-oregon,2975954004,TCP,,60071,22,177.97.116.84,BR,Brazil,Estado do Rio Grande do Sul,RS,,-30.0333,-51.2
04/03/2013 08:37,groucho-sydney,3550629683,TCP,,43876,5900,211.162.79.51,CN,China,Beijing Shi,11,,39.9289,116.3883
04/03/2013 08:38,groucho-singapore,2916150066,TCP,,6000,808,173.208.235.50,US,United States,Missouri,MO,64106,39.1068,-94.566
04/03/2013 08:43,groucho-oregon,1017974346,TCP,,6000,8080,60.173.14.74,CN,China,Anhui Sheng,34,,31.8639,117.2808
04/03/2013 08:44,groucho-us-east,1017974346,TCP,,6000,8080,60.173.14.74,CN,China,Anhui Sheng,34,,31.8639,117.2808
04/03/2013 08:44,groucho-eu,1017974346,TCP,,6000,8080,60.173.14.74,CN,China,Anhui Sheng,34,,31.8639,117.2808
04/03/2013 08:45,groucho-singapore,1169129130,UDP,,50212,53,69.175.126.170,US,United States,Illinois,IL,60654,41.8876,-87.6368
04/03/2013 08:46,groucho-tokyo,2095903154,TCP,,16085,1433,124.236.241.178,CN,China,Hebei,13,,39.8897,115.275
04/03/2013 08:46,groucho-tokyo,2095903154,TCP,,16101,3306,124.236.241.178,CN,China,Hebei,13,,39.8897,115.275
04/03/2013 08:46,groucho-tokyo,2095903154,TCP,,16561,445,124.236.241.178,CN,China,Hebei,13,,39.8897,115.275
04/03/2013 08:47,groucho-norcal,782621898,ICMP,3,,,46.165.220.202,DE,Germany,,,,51,9
04/03/2013 08:49,groucho-tokyo,782621898,ICMP,3,,,46.165.220.202,DE,Germany,,,,51,9
04/03/2013 08:51,groucho-eu,1627302658,TCP,,37541,80,96.254.171.2,US,United States,Florida,FL,34668,28.3031,-82.7048
04/03/2013 08:51,groucho-eu,1627302658,TCP,,37541,80,96.254.171.2,US,United States,Florida,FL,34668,28.3031,-82.7048
04/03/2013 08:53,groucho-singapore,1896596178,TCP,,6000,1433,113.11.194.210,CN,China,Beijing Shi,11,,39.9289,116.3883
04/03/2013 08:56,groucho-sa,3225771683,UDP,,5073,5060,192.69.94.163,US,United States,Pennsylvania,PA,18411,41.4486,-75.728
04/03/2013 08:55,groucho-norcal,3357745722,TCP,,38666,5000,200.35.34.58,CO,Colombia,Antioquia,ANT,,6.2518,-75.5636
04/03/2013 08:56,zeppo-norcal,3357745722,TCP,,41797,5000,200.35.34.58,CO,Colombia,Antioquia,ANT,,6.2518,-75.5636
04/03/2013 08:57,groucho-us-east,1040257450,UDP,,1037,137,62.1.17.170,GR,Greece,,,,39,22
04/03/2013 08:58,groucho-singapore,3740323306,TCP,,33722,1433,222.240.205.234,CN,China,Hunan,43,,28.1792,113.1136
04/03/2013 09:02,groucho-oregon,1965603898,TCP,,18349,1433,117.40.188.58,CN,China,Jiangxi Sheng,36,,28.55,115.9333
04/03/2013 09:02,groucho-us-east,1123633644,TCP,,36810,80,66.249.73.236,US,United States,California,CA,,37.386,-122.0838
04/03/2013 09:02,groucho-us-east,1123633644,TCP,,36810,80,66.249.73.236,US,United States,California,CA,,37.386,-122.0838
04/03/2013 09:03,groucho-us-east,1123633644,TCP,,36810,80,66.249.73.236,US,United States,California,CA,,37.386,-122.0838
04/03/2013 09:03,groucho-us-east,3357745722,TCP,,58086,5000,200.35.34.58,CO,Colombia,Antioquia,ANT,,6.2518,-75.5636
04/03/2013 09:07,groucho-singapore,1017977401,TCP,,6000,1433,60.173.26.57,CN,China,Anhui Sheng,34,,31.8639,117.2808
04/03/2013 09:09,groucho-tokyo,1566207015,TCP,,4137,445,93.90.108.39,RU,Russia,,,,60,100
04/03/2013 09:09,groucho-tokyo,1566207015,TCP,,4137,445,93.90.108.39,RU,Russia,,,,60,100
04/03/2013 09:09,groucho-eu,3357745722,TCP,,41365,5000,200.35.34.58,CO,Colombia,Antioquia,ANT,,6.2518,-75.5636
04/03/2013 09:10,groucho-oregon,843746698,TCP,,34167,23,50.74.141.138,US,United States,New York,NY,11101,40.74,-73.9361
04/03/2013 09:09,groucho-norcal,1627302658,TCP,,38011,8080,96.254.171.2,US,United States,Florida,FL,34668,28.3031,-82.7048
04/03/2013 09:09,groucho-norcal,1627302658,TCP,,38011,8080,96.254.171.2,US,United States,Florida,FL,34668,28.3031,-82.7048
04/03/2013 09:15,groucho-sa,3202214461,ICMP,8,,,190.221.234.61,AR,Argentina,Buenos Aires F.D.,C,,-34.5875,-58.6725
04/03/2013 09:15,groucho-sa,3202214461,ICMP,8,,,190.221.234.61,AR,Argentina,Buenos Aires F.D.,C,,-34.5875,-58.6725
04/03/2013 09:15,groucho-sa,3202214461,ICMP,8,,,190.221.234.61,AR,Argentina,Buenos Aires F.D.,C,,-34.5875,-58.6725
04/03/2013 09:15,groucho-sa,3202214461,ICMP,8,,,190.221.234.61,AR,Argentina,Buenos Aires F.D.,C,,-34.5875,-58.6725
04/03/2013 09:16,groucho-oregon,1936494631,TCP,,45460,23,115.108.144.39,IN,India,,,,20,77
04/03/2013 09:16,groucho-oregon,2093050955,TCP,,6000,1433,124.193.108.75,CN,China,Beijing Shi,11,,39.9289,116.3883
04/03/2013 09:17,groucho-oregon,1032051418,TCP,,6000,1433,61.131.218.218,CN,China,Jiangxi Sheng,36,,28.55,115.9333
04/03/2013 09:18,groucho-tokyo,1545890311,TCP,,4514,445,92.36.106.7,RU,Russia,Moscow,MOW,,55.7522,37.6156
04/03/2013 09:18,groucho-tokyo,1545890311,TCP,,4514,445,92.36.106.7,RU,Russia,Moscow,MOW,,55.7522,37.6156
04/03/2013 09:18,groucho-singapore,3394623162,TCP,,40236,1433,202.85.214.186,CN,China,,,,35,105
04/03/2013 09:20,groucho-singapore,3736743325,TCP,,6000,6666,222.186.45.157,CN,China,Jiangsu Sheng,32,,32.0617,118.7778
04/03/2013 09:21,groucho-oregon,3350488989,TCP,,6000,1433,199.180.103.157,US,United States,California,CA,94085,37.3887,-122.0188
04/03/2013 09:22,groucho-oregon,1989170793,TCP,,6000,3306,118.144.86.105,CN,China,Beijing Shi,11,,39.9289,116.3883
04/03/2013 09:25,groucho-tokyo,2916150066,TCP,,6000,808,173.208.235.50,US,United States,Missouri,MO,64106,39.1068,-94.566
04/03/2013 09:26,groucho-sydney,3357745722,TCP,,50190,5000,200.35.34.58,CO,Colombia,Antioquia,ANT,,6.2518,-75.5636
04/03/2013 09:26,groucho-tokyo,2917802434,TCP,,6000,3306,173.234.33.194,US,United States,Illinois,IL,60616,41.8471,-87.6248
04/03/2013 09:28,groucho-tokyo,1896596178,TCP,,6000,1433,113.11.194.210,CN,China,Beijing Shi,11,,39.9289,116.3883
04/03/2013 09:31,groucho-tokyo,456587666,TCP,,6000,3389,27.54.249.146,CN,China,,,,35,105
04/03/2013 09:31,groucho-oregon,3736745000,TCP,,6000,1433,222.186.52.40,CN,China,Jiangsu Sheng,32,,32.0617,118.7778
04/03/2013 09:33,groucho-tokyo,1652482834,TCP,,6000,3306,98.126.227.18,US,United States,California,CA,92867,33.8138,-117.7986
04/03/2013 09:35,groucho-tokyo,1019193981,TCP,,6000,135,60.191.170.125,CN,China,Jiangsu Sheng,32,,32.4907,119.9081
04/03/2013 09:35,groucho-singapore,2054373059,TCP,,6000,5900,122.115.62.195,CN,China,Henan Sheng,41,,34.6836,113.5325
04/03/2013 09:36,groucho-singapore,3322768892,TCP,,6000,1433,198.13.109.252,US,United States,California,CA,91789,34.0115,-117.8535
04/03/2013 09:37,groucho-oregon,1019194044,TCP,,6000,135,60.191.170.188,CN,China,Jiangsu Sheng,32,,32.4907,119.9081
04/03/2013 09:38,groucho-oregon,3730580862,TCP,,6000,3389,222.92.37.126,CN,China,Jiangsu Sheng,32,,32.0617,118.7778
04/03/2013 09:39,groucho-sa,3730580862,TCP,,6000,3389,222.92.37.126,CN,China,Jiangsu Sheng,32,,32.0617,118.7778
04/03/2013 09:39,groucho-oregon,1017974347,TCP,,6000,8080,60.173.14.75,CN,China,Anhui Sheng,34,,31.8639,117.2808
04/03/2013 09:39,groucho-norcal,3730580862,TCP,,6000,3389,222.92.37.126,CN,China,Jiangsu Sheng,32,,32.0617,118.7778
04/03/2013 09:39,zeppo-norcal,3730580862,TCP,,6000,3389,222.92.37.126,CN,China,Jiangsu Sheng,32,,32.0617,118.7778
04/03/2013 09:40,groucho-us-east,3730580862,TCP,,6000,3389,222.92.37.126,CN,China,Jiangsu Sheng,32,,32.0617,118.7778
04/03/2013 09:40,groucho-eu,3730580862,TCP,,6000,3389,222.92.37.126,CN,China,Jiangsu Sheng,32,,32.0617,118.7778
04/03/2013 09:40,groucho-oregon,1017974346,TCP,,6000,8080,60.173.14.74,CN,China,Anhui Sheng,34,,31.8639,117.2808
04/03/2013 09:41,groucho-sydney,3730580862,TCP,,6000,3389,222.92.37.126,CN,China,Jiangsu Sheng,32,,32.0617,118.7778
04/03/2013 09:41,groucho-us-east,1017974346,TCP,,6000,8080,60.173.14.74,CN,China,Anhui Sheng,34,,31.8639,117.2808
04/03/2013 09:41,groucho-singapore,1019141882,TCP,,53831,3389,60.190.222.250,CN,China,,,,35,105
04/03/2013 09:41,groucho-eu,1017974346,TCP,,6000,8080,60.173.14.74,CN,China,Anhui Sheng,34,,31.8639,117.2808
04/03/2013 09:42,groucho-oregon,3630406730,TCP,,6000,1433,216.99.156.74,US,United States,California,CA,91789,34.0115,-117.8535
04/03/2013 09:42,groucho-tokyo,1910276975,TCP,,2142,1433,113.220.131.111,CN,China,Hunan,43,,28.1792,113.1136
04/03/2013 09:44,groucho-us-east,456587666,TCP,,6000,3389,27.54.249.146,CN,China,,,,35,105
04/03/2013 09:44,groucho-sydney,2953454577,TCP,,40802,993,176.10.35.241,IS,Iceland,,,,65,-18
04/03/2013 09:44,groucho-norcal,1627302658,TCP,,51201,3128,96.254.171.2,US,United States,Florida,FL,34668,28.3031,-82.7048
04/03/2013 09:44,groucho-norcal,1627302658,TCP,,51201,3128,96.254.171.2,US,United States,Florida,FL,34668,28.3031,-82.7048
04/03/2013 09:45,groucho-sydney,3725464200,UDP,,47454,14415,222.14.18.136,JP,Japan,,,,35.69,139.69
04/03/2013 09:45,groucho-sydney,3725464200,UDP,,47454,14415,222.14.18.136,JP,Japan,,,,35.69,139.69
04/03/2013 09:45,groucho-sydney,3725464200,UDP,,47454,14415,222.14.18.136,JP,Japan,,,,35.69,139.69
04/03/2013 09:45,groucho-sydney,3725464200,UDP,,47454,14415,222.14.18.136,JP,Japan,,,,35.69,139.69
04/03/2013 09:45,groucho-singapore,3658020275,TCP,,6000,1433,218.8.245.179,CN,China,Heilongjiang Sheng,23,,45.75,126.65
04/03/2013 09:45,groucho-sydney,3725464200,UDP,,47454,14415,222.14.18.136,JP,Japan,,,,35.69,139.69
04/03/2013 09:46,groucho-sydney,3725464200,UDP,,47454,14415,222.14.18.136,JP,Japan,,,,35.69,139.69
04/03/2013 09:46,groucho-singapore,3730580862,TCP,,6000,3389,222.92.37.126,CN,China,Jiangsu Sheng,32,,32.0617,118.7778
04/03/2013 09:46,groucho-sydney,3725464200,UDP,,47454,14415,222.14.18.136,JP,Japan,,,,35.69,139.69
04/03/2013 09:48,groucho-tokyo,3730580862,TCP,,6000,3389,222.92.37.126,CN,China,Jiangsu Sheng,32,,32.0617,118.7778
04/03/2013 09:48,groucho-norcal,3225771683,UDP,,5073,5060,192.69.94.163,US,United States,Pennsylvania,PA,18411,41.4486,-75.728
04/03/2013 09:49,zeppo-norcal,3225771683,UDP,,5073,5060,192.69.94.163,US,United States,Pennsylvania,PA,18411,41.4486,-75.728
04/03/2013 09:50,groucho-tokyo,1017972899,TCP,,6000,8080,60.173.8.163,CN,China,Anhui Sheng,34,,31.8639,117.2808
04/03/2013 09:50,groucho-oregon,3689611620,TCP,,6000,1433,219.235.1.100,CN,China,Beijing Shi,11,,39.9289,116.3883
04/03/2013 09:50,groucho-norcal,2011890335,ICMP,8,,,119.235.2.159,LK,Sri Lanka,,,,7,81
04/03/2013 09:50,groucho-norcal,2011890335,ICMP,8,,,119.235.2.159,LK,Sri Lanka,,,,7,81
04/03/2013 09:51,groucho-singapore,1944440011,ICMP,8,,,115.229.204.203,CN,China,Zhejiang Sheng,33,,30.7522,120.75
04/03/2013 09:51,groucho-singapore,1944440011,ICMP,8,,,115.229.204.203,CN,China,Zhejiang Sheng,33,,30.7522,120.75
04/03/2013 09:53,groucho-sydney,1627302658,TCP,,40793,8080,96.254.171.2,US,United States,Florida,FL,34668,28.3031,-82.7048
04/03/2013 09:53,groucho-sydney,1627302658,TCP,,40793,8080,96.254.171.2,US,United States,Florida,FL,34668,28.3031,-82.7048
04/03/2013 09:53,groucho-sa,3754768553,TCP,,36423,23,223.205.56.169,TH,Thailand,,,,15,100
04/03/2013 09:54,groucho-sa,3580494785,UDP,,14709,42776,213.106.3.193,GB,United Kingdom,England,ENG,E18,51.5885,0.0182
04/03/2013 09:54,groucho-sa,3580494785,UDP,,14709,42776,213.106.3.193,GB,United Kingdom,England,ENG,E18,51.5885,0.0182
04/03/2013 09:54,groucho-sa,3580494785,UDP,,14709,42776,213.106.3.193,GB,United Kingdom,England,ENG,E18,51.5885,0.0182
04/03/2013 09:54,groucho-sa,3580494785,UDP,,14709,42776,213.106.3.193,GB,United Kingdom,England,ENG,E18,51.5885,0.0182
04/03/2013 09:54,groucho-sa,3580494785,UDP,,14709,42776,213.106.3.193,GB,United Kingdom,England,ENG,E18,51.5885,0.0182
04/03/2013 09:54,groucho-oregon,1945101789,TCP,,20171,1433,115.239.229.221,CN,China,Zhejiang Sheng,33,,30.2936,120.1614
04/03/2013 09:54,groucho-sa,3580494785,UDP,,14709,42776,213.106.3.193,GB,United Kingdom,England,ENG,E18,51.5885,0.0182
04/03/2013 09:55,groucho-sa,3580494785,UDP,,14709,42776,213.106.3.193,GB,United Kingdom,England,ENG,E18,51.5885,0.0182
04/03/2013 09:55,groucho-oregon,3235002076,TCP,,6000,22,192.210.54.220,US,United States,California,CA,91789,34.0115,-117.8535
04/03/2013 09:55,groucho-oregon,1031947814,TCP,,6000,1433,61.130.70.38,CN,China,,,,35,105
04/03/2013 09:57,groucho-sa,3235002076,TCP,,6000,22,192.210.54.220,US,United States,California,CA,91789,34.0115,-117.8535
04/03/2013 09:56,groucho-singapore,1694565647,TCP,,6000,3306,101.1.5.15,HK,Hong Kong,,,,22.25,114.1667
04/03/2013 09:57,zeppo-norcal,2102366516,TCP,,6000,1433,125.79.145.52,CN,China,Fujian,35,,26.0614,119.3061
04/03/2013 09:57,groucho-norcal,2102366516,TCP,,6000,1433,125.79.145.52,CN,China,Fujian,35,,26.0614,119.3061
04/03/2013 09:58,zeppo-norcal,3235002076,TCP,,6000,22,192.210.54.220,US,United States,California,CA,91789,34.0115,-117.8535
04/03/2013 09:57,groucho-norcal,3235002076,TCP,,6000,22,192.210.54.220,US,United States,California,CA,91789,34.0115,-117.8535
04/03/2013 09:58,groucho-us-east,2102366516,TCP,,6000,1433,125.79.145.52,CN,China,Fujian,35,,26.0614,119.3061
04/03/2013 09:58,groucho-tokyo,1020506730,TCP,,34363,3306,60.211.178.106,CN,China,Shandong Sheng,37,,36.6683,116.9972
04/03/2013 09:58,groucho-tokyo,1020506730,TCP,,35016,808,60.211.178.106,CN,China,Shandong Sheng,37,,36.6683,116.9972
04/03/2013 09:58,groucho-tokyo,1020506730,TCP,,33454,1433,60.211.178.106,CN,China,Shandong Sheng,37,,36.6683,116.9972
04/03/2013 09:59,groucho-eu,2102366516,TCP,,6000,1433,125.79.145.52,CN,China,Fujian,35,,26.0614,119.3061
04/03/2013 09:59,groucho-us-east,3235002076,TCP,,6000,22,192.210.54.220,US,United States,California,CA,91789,34.0115,-117.8535
04/03/2013 09:59,groucho-sydney,2102366516,TCP,,6000,1433,125.79.145.52,CN,China,Fujian,35,,26.0614,119.3061
04/03/2013 10:01,groucho-sa,2086286990,TCP,,39891,23,124.90.54.142,CN,China,Zhejiang Sheng,33,,30.2936,120.1614
04/03/2013 10:01,groucho-sydney,3235002076,TCP,,6000,22,192.210.54.220,US,United States,California,CA,91789,34.0115,-117.8535
04/03/2013 10:01,groucho-singapore,1778592778,TCP,,6000,3306,106.3.44.10,CN,China,Beijing Shi,11,,39.9289,116.3883
04/03/2013 10:03,groucho-sydney,1089169730,TCP,,39550,3389,64.235.105.66,CA,Canada,Ontario,ON,N2L,43.4529,-80.5281
04/03/2013 10:03,groucho-sydney,1089169730,TCP,,39551,3389,64.235.105.66,CA,Canada,Ontario,ON,N2L,43.4529,-80.5281
04/03/2013 10:05,groucho-oregon,3524169947,TCP,,6000,1433,210.14.144.219,CN,China,Beijing Shi,11,,39.9289,116.3883
04/03/2013 10:06,groucho-us-east,3225771683,UDP,,5073,5060,192.69.94.163,US,United States,Pennsylvania,PA,18411,41.4486,-75.728
04/03/2013 10:07,groucho-singapore,3235002076,TCP,,6000,22,192.210.54.220,US,United States,California,CA,91789,34.0115,-117.8535
04/03/2013 10:08,groucho-tokyo,1778592778,TCP,,6000,3306,106.3.44.10,CN,China,Beijing Shi,11,,39.9289,116.3883
04/03/2013 10:08,groucho-singapore,1946286339,TCP,,42634,5000,116.1.249.3,CN,China,Guangxi Zhuangzu Zizhiqu,45,,22.8167,108.3167
04/03/2013 10:10,groucho-tokyo,3235002076,TCP,,6000,22,192.210.54.220,US,United States,California,CA,91789,34.0115,-117.8535
04/03/2013 10:11,groucho-oregon,3346199684,TCP,,6000,1433,199.114.244.132,US,United States,California,CA,94536,37.567,-121.9829
04/03/2013 10:11,groucho-eu,1915363900,UDP,,6881,32452,114.42.34.60,TW,Taiwan,Taipei,,,25.0392,121.525
04/03/2013 10:11,groucho-eu,1915363900,UDP,,6881,32452,114.42.34.60,TW,Taiwan,Taipei,,,25.0392,121.525
04/03/2013 10:11,groucho-eu,1915363900,UDP,,6881,32452,114.42.34.60,TW,Taiwan,Taipei,,,25.0392,121.525
04/03/2013 10:11,groucho-singapore,3074218066,TCP,,56443,3389,183.60.216.82,CN,China,Guangdong,44,,23.1167,113.25
04/03/2013 10:11,groucho-tokyo,3074218066,TCP,,5595,3389,183.60.216.82,CN,China,Guangdong,44,,23.1167,113.25
04/03/2013 10:13,groucho-singapore,1033063061,TCP,,6000,3306,61.147.74.149,CN,China,Jiangsu Sheng,32,,32.0617,118.7778
04/03/2013 10:15,groucho-oregon,1032051418,TCP,,6000,1433,61.131.218.218,CN,China,Jiangxi Sheng,36,,28.55,115.9333
04/03/2013 10:15,groucho-us-east,3022043339,TCP,,4198,445,180.32.184.203,JP,Japan,Tokyo-to,13,,35.685,139.7514
04/03/2013 10:15,groucho-us-east,3022043339,TCP,,4198,445,180.32.184.203,JP,Japan,Tokyo-to,13,,35.685,139.7514
04/03/2013 10:16,groucho-tokyo,1327728849,TCP,,2423,445,79.35.136.209,IT,Italy,Provincia di Caserta,CE,,41.0333,14.2833
04/03/2013 10:16,groucho-tokyo,1327728849,TCP,,2423,445,79.35.136.209,IT,Italy,Provincia di Caserta,CE,,41.0333,14.2833
04/03/2013 10:17,groucho-us-east,1936488149,TCP,,37880,23,115.108.118.213,IN,India,,,,20,77
04/03/2013 10:18,groucho-oregon,1995742142,TCP,,6000,1433,118.244.155.190,CN,China,Beijing Shi,11,,39.9289,116.3883
04/03/2013 10:18,groucho-us-east,1000695890,TCP,,44769,23,59.165.104.82,IN,India,State of Tamil Nadu,TN,,13.0833,80.2833
04/03/2013 10:18,groucho-tokyo,2078931933,TCP,,8888,1433,123.233.251.221,CN,China,Shandong Sheng,37,,36.6683,116.9972
04/03/2013 10:18,groucho-tokyo,2078931933,TCP,,8888,3306,123.233.251.221,CN,China,Shandong Sheng,37,,36.6683,116.9972
04/03/2013 10:18,groucho-tokyo,2078931933,TCP,,8888,8090,123.233.251.221,CN,China,Shandong Sheng,37,,36.6683,116.9972
04/03/2013 10:20,groucho-eu,3225771683,UDP,,5073,5060,192.69.94.163,US,United States,Pennsylvania,PA,18411,41.4486,-75.728
04/03/2013 10:21,groucho-singapore,1778593162,TCP,,6000,6666,106.3.45.138,CN,China,Beijing Shi,11,,39.9289,116.3883
04/03/2013 10:22,groucho-sa,1381747234,TCP,,3319,135,82.91.202.34,IT,Italy,Pisa,PI,56035,43.551,10.5891
04/03/2013 10:25,groucho-us-east,2916153003,TCP,,1140,445,173.208.246.171,US,United States,Missouri,MO,64106,39.1068,-94.566
04/03/2013 10:25,groucho-us-east,2916153003,TCP,,1140,445,173.208.246.171,US,United States,Missouri,MO,64106,39.1068,-94.566
04/03/2013 10:25,groucho-oregon,1965603898,TCP,,27112,1433,117.40.188.58,CN,China,Jiangxi Sheng,36,,28.55,115.9333
04/03/2013 10:25,zeppo-norcal,1627302658,TCP,,55298,80,96.254.171.2,US,United States,Florida,FL,34668,28.3031,-82.7048
04/03/2013 10:25,zeppo-norcal,1627302658,TCP,,55298,80,96.254.171.2,US,United States,Florida,FL,34668,28.3031,-82.7048
04/03/2013 10:25,groucho-oregon,3546779834,TCP,,31244,1433,211.103.144.186,CN,China,Beijing Shi,11,,39.9289,116.3883
04/03/2013 10:27,groucho-singapore,1019189660,TCP,,6000,135,60.191.153.156,CN,China,,,,35,105
04/03/2013 10:27,groucho-oregon,1995742780,TCP,,6000,1433,118.244.158.60,CN,China,Beijing Shi,11,,39.9289,116.3883
04/03/2013 10:28,groucho-oregon,710973289,TCP,,6000,3306,42.96.151.105,CN,China,Beijing Shi,11,,39.9289,116.3883
04/03/2013 10:30,groucho-singapore,3702892698,TCP,,6000,1433,220.181.168.154,CN,China,Beijing Shi,11,,39.9289,116.3883
04/03/2013 10:31,groucho-tokyo,1965603898,TCP,,25641,1433,117.40.188.58,CN,China,Jiangxi Sheng,36,,28.55,115.9333
04/03/2013 10:33,groucho-tokyo,1599290169,TCP,,1986,445,95.83.59.57,RU,Russia,,,,60,100
04/03/2013 10:33,groucho-tokyo,1599290169,TCP,,1986,445,95.83.59.57,RU,Russia,,,,60,100
04/03/2013 10:34,groucho-oregon,1893032259,TCP,,2230,3389,112.213.97.67,HK,Hong Kong,,,,22.25,114.1667
04/03/2013 10:34,groucho-sa,1017974347,TCP,,6000,8080,60.173.14.75,CN,China,Anhui Sheng,34,,31.8639,117.2808
04/03/2013 10:34,groucho-singapore,782621898,ICMP,3,,,46.165.220.202,DE,Germany,,,,51,9
04/03/2013 10:34,groucho-tokyo,1730099496,TCP,,6000,1433,103.31.57.40,CN,China,,,,35,105
04/03/2013 10:33,groucho-norcal,1017974347,TCP,,6000,8080,60.173.14.75,CN,China,Anhui Sheng,34,,31.8639,117.2808
04/03/2013 10:34,zeppo-norcal,1017974347,TCP,,6000,8080,60.173.14.75,CN,China,Anhui Sheng,34,,31.8639,117.2808
04/03/2013 10:37,groucho-singapore,1918931524,TCP,,6000,4899,114.96.146.68,CN,China,Anhui Sheng,34,,31.8639,117.2808
04/03/2013 10:37,groucho-singapore,1962855951,TCP,,6000,3306,116.254.206.15,CN,China,Beijing Shi,11,,39.9289,116.3883
04/03/2013 10:40,groucho-eu,1167298204,TCP,,3900,3389,69.147.142.156,US,United States,Texas,TX,78401,27.7975,-97.3994
04/03/2013 10:40,groucho-eu,1167298204,TCP,,3900,3389,69.147.142.156,US,United States,Texas,TX,78401,27.7975,-97.3994
04/03/2013 10:40,groucho-eu,1167298204,TCP,,3900,3389,69.147.142.156,US,United States,Texas,TX,78401,27.7975,-97.3994
04/03/2013 10:40,groucho-tokyo,2960060755,TCP,,2212,139,176.110.241.83,RU,Russia,Vologodskaya Oblast',VLG,,59.0833,38.1679
04/03/2013 10:40,groucho-tokyo,2960060755,TCP,,2212,139,176.110.241.83,RU,Russia,Vologodskaya Oblast',VLG,,59.0833,38.1679
04/03/2013 10:41,groucho-tokyo,2960060755,TCP,,2431,445,176.110.241.83,RU,Russia,Vologodskaya Oblast',VLG,,59.0833,38.1679
04/03/2013 10:41,groucho-tokyo,2960060755,TCP,,2431,445,176.110.241.83,RU,Russia,Vologodskaya Oblast',VLG,,59.0833,38.1679
04/03/2013 10:41,groucho-oregon,987620702,TCP,,6000,1433,58.221.229.94,CN,China,Jiangsu Sheng,32,,32.0617,118.7778
04/03/2013 10:41,groucho-oregon,1017974346,TCP,,6000,8080,60.173.14.74,CN,China,Anhui Sheng,34,,31.8639,117.2808
04/03/2013 10:42,groucho-singapore,2095621606,TCP,,6000,3389,124.232.165.230,CN,China,Hunan,43,,28.1792,113.1136
04/03/2013 10:42,groucho-us-east,1017974346,TCP,,6000,8080,60.173.14.74,CN,China,Anhui Sheng,34,,31.8639,117.2808
04/03/2013 10:42,groucho-eu,1017974346,TCP,,6000,8080,60.173.14.74,CN,China,Anhui Sheng,34,,31.8639,117.2808
04/03/2013 10:45,groucho-sa,2057335021,UDP,,1038,137,122.160.112.237,IN,India,NCT,DL,,28.6667,77.2167
04/03/2013 10:46,groucho-oregon,1019193981,TCP,,6000,135,60.191.170.125,CN,China,Jiangsu Sheng,32,,32.4907,119.9081
04/03/2013 10:49,groucho-oregon,3730416891,TCP,,6000,1433,222.89.164.251,CN,China,Henan Sheng,41,,34.6836,113.5325
04/03/2013 10:50,groucho-oregon,1990410852,TCP,,6000,135,118.163.66.100,TW,Taiwan,Taipei,,,25.0392,121.525
04/03/2013 10:52,groucho-tokyo,1312602045,TCP,,2509,445,78.60.183.189,LT,Lithuania,Vilniaus Apskritis,VL,,54.6833,25.3167
04/03/2013 10:52,groucho-tokyo,1312602045,TCP,,2509,445,78.60.183.189,LT,Lithuania,Vilniaus Apskritis,VL,,54.6833,25.3167
04/03/2013 10:53,groucho-singapore,3688562967,TCP,,2205,9090,219.219.1.23,CN,China,Fujian,35,,25.0167,116.7116
04/03/2013 10:55,groucho-sydney,3225771683,UDP,,5073,5060,192.69.94.163,US,United States,Pennsylvania,PA,18411,41.4486,-75.728
04/03/2013 10:55,groucho-oregon,2382398543,TCP,,6000,1433,142.0.132.79,US,United States,California,CA,94024,37.3495,-122.1163
04/03/2013 10:55,groucho-singapore,2033769224,TCP,,6000,8080,121.56.219.8,CN,China,Inner Mongolia,15,,40.6522,109.8222
04/03/2013 10:56,groucho-oregon,1031947814,TCP,,6000,1433,61.130.70.38,CN,China,,,,35,105
04/03/2013 10:59,zeppo-norcal,2379512090,TCP,,50659,443,141.212.121.26,US,United States,Michigan,MI,48109,42.2923,-83.7145
04/03/2013 11:03,groucho-norcal,2055403269,UDP,,49341,40938,122.130.247.5,JP,Japan,,,,35.69,139.69
04/03/2013 11:03,groucho-norcal,2055403269,UDP,,49341,40938,122.130.247.5,JP,Japan,,,,35.69,139.69
04/03/2013 11:03,groucho-norcal,2055403269,UDP,,49341,40938,122.130.247.5,JP,Japan,,,,35.69,139.69
04/03/2013 11:03,groucho-norcal,2055403269,UDP,,49341,40938,122.130.247.5,JP,Japan,,,,35.69,139.69
04/03/2013 11:03,groucho-norcal,2055403269,UDP,,49341,40938,122.130.247.5,JP,Japan,,,,35.69,139.69
04/03/2013 11:04,groucho-norcal,2055403269,UDP,,49341,40938,122.130.247.5,JP,Japan,,,,35.69,139.69
04/03/2013 11:04,groucho-norcal,2055403269,UDP,,49341,40938,122.130.247.5,JP,Japan,,,,35.69,139.69
04/03/2013 11:07,groucho-singapore,2096001612,TCP,,6000,1433,124.238.114.76,CN,China,Hebei,13,,39.8897,115.275
04/03/2013 11:08,groucho-singapore,994027267,TCP,,6000,1433,59.63.167.3,CN,China,Jiangxi Sheng,36,,28.55,115.9333
04/03/2013 11:10,groucho-oregon,1032051418,TCP,,6000,1433,61.131.218.218,CN,China,Jiangxi Sheng,36,,28.55,115.9333
04/03/2013 11:15,groucho-oregon,1887152461,TCP,,6000,1433,112.123.169.77,CN,China,Anhui Sheng,34,,31.8639,117.2808
04/03/2013 11:15,groucho-us-east,1539912766,TCP,,46984,80,91.201.52.62,RU,Russia,,,,60,100
04/03/2013 11:16,groucho-us-east,1539912766,TCP,,46984,80,91.201.52.62,RU,Russia,,,,60,100
04/03/2013 11:16,groucho-tokyo,1017972899,TCP,,6000,8080,60.173.8.163,CN,China,Anhui Sheng,34,,31.8639,117.2808
04/03/2013 11:16,groucho-us-east,1539912766,TCP,,46984,80,91.201.52.62,RU,Russia,,,,60,100
04/03/2013 11:16,groucho-tokyo,1841650834,ICMP,8,,,109.197.92.146,RU,Russia,,,,60,100
04/03/2013 11:16,groucho-tokyo,1841650834,ICMP,8,,,109.197.92.146,RU,Russia,,,,60,100
04/03/2013 11:17,groucho-us-east,1539912766,TCP,,50779,80,91.201.52.62,RU,Russia,,,,60,100
04/03/2013 11:17,groucho-us-east,1539912766,TCP,,50779,80,91.201.52.62,RU,Russia,,,,60,100
04/03/2013 11:17,groucho-us-east,1539912766,TCP,,50779,80,91.201.52.62,RU,Russia,,,,60,100
04/03/2013 11:17,groucho-singapore,3351288235,ICMP,3,,,199.192.153.171,US,United States,California,CA,94536,37.567,-121.9829
04/03/2013 11:18,groucho-us-east,1539912766,TCP,,59546,80,91.201.52.62,RU,Russia,,,,60,100
04/03/2013 11:18,groucho-us-east,1539912766,TCP,,59546,80,91.201.52.62,RU,Russia,,,,60,100
04/03/2013 11:18,groucho-us-east,1539912766,TCP,,59546,80,91.201.52.62,RU,Russia,,,,60,100
04/03/2013 11:19,groucho-oregon,3559817642,UDP,,5062,5060,212.46.129.170,GB,United Kingdom,,,,51.5,-0.13
04/03/2013 11:19,groucho-singapore,3394623162,TCP,,26307,1433,202.85.214.186,CN,China,,,,35,105
04/03/2013 11:19,groucho-singapore,176362647,UDP,,67,68,10.131.20.151,,,,,,,
04/03/2013 11:22,groucho-sa,1936572786,TCP,,49667,23,115.109.193.114,IN,India,,,,20,77
04/03/2013 11:22,groucho-sa,1936492298,TCP,,59142,23,115.108.135.10,IN,India,,,,20,77
04/03/2013 11:23,groucho-singapore,1034185775,TCP,,6000,3306,61.164.108.47,CN,China,,,,35,105
04/03/2013 11:24,groucho-sydney,1890429267,UDP,,53272,14415,112.173.169.83,KR,South Korea,,,,37.57,126.98
04/03/2013 11:24,groucho-sydney,1890429267,UDP,,53272,14415,112.173.169.83,KR,South Korea,,,,37.57,126.98
04/03/2013 11:24,groucho-sydney,1890429267,UDP,,53272,14415,112.173.169.83,KR,South Korea,,,,37.57,126.98
04/03/2013 11:24,groucho-sydney,1890429267,UDP,,53272,14415,112.173.169.83,KR,South Korea,,,,37.57,126.98
04/03/2013 11:24,groucho-sydney,1890429267,UDP,,53272,14415,112.173.169.83,KR,South Korea,,,,37.57,126.98
04/03/2013 11:24,groucho-oregon,987620702,TCP,,6000,1433,58.221.229.94,CN,China,Jiangsu Sheng,32,,32.0617,118.7778
04/03/2013 11:24,groucho-sydney,1890429267,UDP,,53272,14415,112.173.169.83,KR,South Korea,,,,37.57,126.98
04/03/2013 11:30,groucho-sydney,1033072843,TCP,,6000,3389,61.147.112.203,CN,China,Jiangsu Sheng,32,,32.0617,118.7778
04/03/2013 11:31,groucho-oregon,3235002076,TCP,,6000,8080,192.210.54.220,US,United States,California,CA,91789,34.0115,-117.8535
04/03/2013 11:32,groucho-tokyo,1459623849,TCP,,37442,445,87.0.23.169,IT,Italy,Trento,TN,,46.0667,11.1333
04/03/2013 11:32,groucho-tokyo,1459623849,TCP,,37442,445,87.0.23.169,IT,Italy,Trento,TN,,46.0667,11.1333
04/03/2013 11:36,groucho-sydney,1945720469,TCP,,4935,3389,115.249.86.149,IN,India,State of Maharashtra,MH,,18.975,72.8258
04/03/2013 11:36,groucho-singapore,2061739129,TCP,,6000,3306,122.227.164.121,CN,China,Zhejiang Sheng,33,,29.8782,121.5495
04/03/2013 11:36,groucho-oregon,1995742142,TCP,,6000,1433,118.244.155.190,CN,China,Beijing Shi,11,,39.9289,116.3883
04/03/2013 11:38,groucho-tokyo,1169129130,UDP,,58868,53,69.175.126.170,US,United States,Illinois,IL,60654,41.8876,-87.6368
04/03/2013 11:39,zeppo-norcal,2000980333,TCP,,61426,445,119.68.137.109,KR,South Korea,Seoul,11,,37.5985,126.9783
04/03/2013 11:39,zeppo-norcal,2000980333,TCP,,61426,445,119.68.137.109,KR,South Korea,Seoul,11,,37.5985,126.9783
04/03/2013 11:48,groucho-oregon,1965603898,TCP,,52964,1433,117.40.188.58,CN,China,Jiangxi Sheng,36,,28.55,115.9333
04/03/2013 11:48,groucho-oregon,1652482834,TCP,,6000,3306,98.126.227.18,US,United States,California,CA,92867,33.8138,-117.7986
04/03/2013 11:51,groucho-singapore,86176440,TCP,,2587,3128,5.34.242.184,SE,Sweden,,,,62,15
04/03/2013 11:51,groucho-singapore,86176440,TCP,,2587,3128,5.34.242.184,SE,Sweden,,,,62,15
04/03/2013 11:51,groucho-singapore,86176440,TCP,,2587,3128,5.34.242.184,SE,Sweden,,,,62,15
04/03/2013 11:52,groucho-oregon,1017974346,TCP,,6000,8080,60.173.14.74,CN,China,Anhui Sheng,34,,31.8639,117.2808
04/03/2013 11:52,groucho-singapore,994027267,TCP,,6000,1433,59.63.167.3,CN,China,Jiangxi Sheng,36,,28.55,115.9333
04/03/2013 11:53,groucho-us-east,1017974346,TCP,,6000,8080,60.173.14.74,CN,China,Anhui Sheng,34,,31.8639,117.2808
04/03/2013 11:53,groucho-eu,1017974346,TCP,,6000,8080,60.173.14.74,CN,China,Anhui Sheng,34,,31.8639,117.2808
04/03/2013 11:53,groucho-us-east,3072675877,TCP,,40225,23,183.37.80.37,CN,China,Guangdong,44,,23.1167,113.25
04/03/2013 11:53,groucho-tokyo,1965603898,TCP,,18645,1433,117.40.188.58,CN,China,Jiangxi Sheng,36,,28.55,115.9333
04/03/2013 11:54,groucho-norcal,3305532826,TCP,,48973,23,197.6.109.154,TN,Tunisia,,,,34,9
04/03/2013 11:54,zeppo-norcal,3305532826,TCP,,49295,23,197.6.109.154,TN,Tunisia,,,,34,9
04/03/2013 11:55,groucho-tokyo,994027267,TCP,,6000,1433,59.63.167.3,CN,China,Jiangxi Sheng,36,,28.55,115.9333
04/03/2013 11:55,zeppo-norcal,3265958913,TCP,,12282,445,194.170.148.1,AE,United Arab Emirates,,,,24,54
04/03/2013 11:56,groucho-tokyo,1328118017,TCP,,1096,445,79.41.121.1,IT,Italy,Provincia di Genova,GE,16123,44.4167,8.95
04/03/2013 11:56,groucho-tokyo,1328118017,TCP,,1096,445,79.41.121.1,IT,Italy,Provincia di Genova,GE,16123,44.4167,8.95
04/03/2013 11:58,groucho-tokyo,1699613474,TCP,,8888,1433,101.78.11.34,LA,Laos,,,,18,105
04/03/2013 11:58,groucho-singapore,3740323306,TCP,,53976,1433,222.240.205.234,CN,China,Hunan,43,,28.1792,113.1136
04/03/2013 11:58,groucho-singapore,2030742782,TCP,,50643,3389,121.10.172.254,CN,China,Guangdong,44,,23.1167,113.25
04/03/2013 11:58,groucho-singapore,2096001612,TCP,,6000,1433,124.238.114.76,CN,China,Hebei,13,,39.8897,115.275
04/03/2013 11:59,groucho-tokyo,2030742782,TCP,,33171,3389,121.10.172.254,CN,China,Guangdong,44,,23.1167,113.25
04/03/2013 11:59,groucho-oregon,2851995904,ICMP,3,,,169.254.1.0,,,,,,,
04/03/2013 12:00,groucho-singapore,3702892700,TCP,,6000,1433,220.181.168.156,CN,China,Beijing Shi,11,,39.9289,116.3883
04/03/2013 12:02,groucho-tokyo,1294814539,TCP,,2198,445,77.45.77.75,PL,Poland,Greater Poland Voivodeship,WP,,53.154,17.2676
04/03/2013 12:02,groucho-tokyo,1294814539,TCP,,2198,445,77.45.77.75,PL,Poland,Greater Poland Voivodeship,WP,,53.154,17.2676
04/03/2013 12:03,groucho-tokyo,1017972899,TCP,,6000,8080,60.173.8.163,CN,China,Anhui Sheng,34,,31.8639,117.2808
04/03/2013 12:04,groucho-singapore,3549153690,TCP,,60351,80,211.139.201.154,CN,China,Guangdong,44,,23.1167,113.25
04/03/2013 12:04,groucho-singapore,3726901485,TCP,,6000,1433,222.36.0.237,CN,China,Beijing Shi,11,,39.9289,116.3883
04/03/2013 12:05,groucho-oregon,1032051418,TCP,,6000,1433,61.131.218.218,CN,China,Jiangxi Sheng,36,,28.55,115.9333
04/03/2013 12:05,groucho-us-east,3321820913,TCP,,1312,445,197.254.246.241,SD,Sudan,,,,15,30
04/03/2013 12:07,groucho-tokyo,3729368976,TCP,,6000,65500,222.73.167.144,CN,China,Shanghai Shi,31,,31.0456,121.3997
04/03/2013 12:10,groucho-oregon,3546238780,TCP,,6000,1433,211.95.79.60,CN,China,Beijing Shi,11,,39.9289,116.3883
04/03/2013 12:10,groucho-tokyo,2981282034,TCP,,3881,445,177.178.192.242,BR,Brazil,,,,-10,-55
04/03/2013 12:10,groucho-tokyo,2981282034,TCP,,3881,445,177.178.192.242,BR,Brazil,,,,-10,-55
04/03/2013 12:10,groucho-singapore,3736743325,TCP,,6000,6666,222.186.45.157,CN,China,Jiangsu Sheng,32,,32.0617,118.7778
04/03/2013 12:19,groucho-oregon,1033959362,TCP,,6000,1433,61.160.247.194,CN,China,Jiangsu Sheng,32,,32.0617,118.7778
04/03/2013 12:20,groucho-singapore,2379512127,TCP,,52399,443,141.212.121.63,US,United States,Michigan,MI,48109,42.2923,-83.7145
04/03/2013 12:22,groucho-tokyo,456587666,TCP,,6000,1433,27.54.249.146,CN,China,,,,35,105
04/03/2013 12:24,groucho-singapore,2947856690,TCP,,1851,1080,175.180.185.50,TW,Taiwan,Taipei,,,25.0392,121.525
04/03/2013 12:24,groucho-singapore,1978631490,TCP,,44528,22,117.239.133.66,IN,India,,,,20,77
04/03/2013 12:25,groucho-tokyo,2041363861,UDP,,38863,20029,121.172.189.149,KR,South Korea,,,,37.57,126.98
04/03/2013 12:25,groucho-tokyo,2041363861,UDP,,38863,20029,121.172.189.149,KR,South Korea,,,,37.57,126.98
04/03/2013 12:25,groucho-tokyo,2041363861,UDP,,38863,20029,121.172.189.149,KR,South Korea,,,,37.57,126.98
04/03/2013 12:25,groucho-tokyo,2041363861,UDP,,38863,20029,121.172.189.149,KR,South Korea,,,,37.57,126.98
04/03/2013 12:25,groucho-singapore,3032095556,TCP,,6000,1433,180.186.27.68,CN,China,Beijing Shi,11,,39.9289,116.3883
04/03/2013 12:25,groucho-tokyo,2041363861,UDP,,38863,20029,121.172.189.149,KR,South Korea,,,,37.57,126.98
04/03/2013 12:25,groucho-tokyo,2041363861,UDP,,38863,20029,121.172.189.149,KR,South Korea,,,,37.57,126.98
04/03/2013 12:25,groucho-tokyo,2041363861,UDP,,38863,20029,121.172.189.149,KR,South Korea,,,,37.57,126.98
04/03/2013 12:26,groucho-tokyo,3417110260,TCP,,4058,445,203.172.246.244,TH,Thailand,,,,15,100
04/03/2013 12:26,groucho-tokyo,3417110260,TCP,,4058,445,203.172.246.244,TH,Thailand,,,,15,100
04/03/2013 12:26,groucho-tokyo,2096001612,TCP,,6000,1433,124.238.114.76,CN,China,Hebei,13,,39.8897,115.275
04/03/2013 12:27,groucho-oregon,3141155401,TCP,,4935,3389,187.58.58.73,BR,Brazil,Estado de Goias,GO,,-17.75,-48.6333
04/03/2013 12:29,groucho-eu,1968135126,TCP,,59940,22,117.79.91.214,CN,China,Beijing Shi,11,,39.9289,116.3883
04/03/2013 12:31,groucho-singapore,1033070415,TCP,,6000,1433,61.147.103.79,CN,China,Jiangsu Sheng,32,,32.0617,118.7778
04/03/2013 12:31,groucho-eu,2017295756,TCP,,4158,23,120.61.125.140,IN,India,,,,20,77
04/03/2013 12:31,groucho-singapore,1033070524,TCP,,6000,1433,61.147.103.188,CN,China,Jiangsu Sheng,32,,32.0617,118.7778
04/03/2013 12:32,groucho-oregon,1995742142,TCP,,6000,1433,118.244.155.190,CN,China,Beijing Shi,11,,39.9289,116.3883
04/03/2013 12:33,groucho-singapore,2075647033,TCP,,6000,3306,123.183.220.57,CN,China,Hebei,13,,39.8897,115.275
04/03/2013 12:34,groucho-oregon,3658020275,TCP,,6000,1433,218.8.245.179,CN,China,Heilongjiang Sheng,23,,45.75,126.65
04/03/2013 12:39,groucho-singapore,1017977401,TCP,,6000,1433,60.173.26.57,CN,China,Anhui Sheng,34,,31.8639,117.2808
04/03/2013 12:43,groucho-singapore,3740020463,TCP,,6000,1433,222.236.46.239,KR,South Korea,Seoul,11,,37.5985,126.9783
04/03/2013 12:43,groucho-singapore,2047119393,TCP,,42920,23,122.4.144.33,CN,China,Shandong Sheng,37,,36.6683,116.9972
04/03/2013 12:46,groucho-oregon,3550963628,TCP,,65195,22,211.167.103.172,CN,China,Beijing Shi,11,,39.9289,116.3883
04/03/2013 12:48,groucho-oregon,1017974346,TCP,,6000,8080,60.173.14.74,CN,China,Anhui Sheng,34,,31.8639,117.2808
04/03/2013 12:49,groucho-sa,3350492485,UDP,,5079,5060,199.180.117.69,US,United States,Pennsylvania,PA,18411,41.4486,-75.728
04/03/2013 12:49,groucho-tokyo,1336113845,TCP,,1342,445,79.163.122.181,PL,Poland,,,,52,20
04/03/2013 12:49,groucho-tokyo,1336113845,TCP,,1342,445,79.163.122.181,PL,Poland,,,,52,20
04/03/2013 12:49,groucho-us-east,1017974346,TCP,,6000,8080,60.173.14.74,CN,China,Anhui Sheng,34,,31.8639,117.2808
04/03/2013 12:49,groucho-eu,1017974346,TCP,,6000,8080,60.173.14.74,CN,China,Anhui Sheng,34,,31.8639,117.2808
04/03/2013 12:49,groucho-tokyo,1034185775,TCP,,6000,3389,61.164.108.47,CN,China,,,,35,105
04/03/2013 12:52,groucho-tokyo,1033070524,TCP,,6000,1433,61.147.103.188,CN,China,Jiangsu Sheng,32,,32.0617,118.7778
04/03/2013 12:54,groucho-oregon,1959653494,TCP,,6000,1433,116.205.240.118,CN,China,Guangdong,44,,22.5333,114.1333
04/03/2013 12:56,groucho-oregon,2021956773,TCP,,6000,1433,120.132.156.165,CN,China,,,,35,105
04/03/2013 12:58,groucho-oregon,1033607410,TCP,,9651,22,61.155.152.242,CN,China,Jiangsu Sheng,32,,32.0617,118.7778
04/03/2013 12:59,groucho-tokyo,216446169,TCP,,2205,445,12.230.180.217,US,United States,,,,38,-97
04/03/2013 12:59,groucho-tokyo,216446169,TCP,,2205,445,12.230.180.217,US,United States,,,,38,-97
04/03/2013 13:02,groucho-tokyo,1017972899,TCP,,6000,8080,60.173.8.163,CN,China,Anhui Sheng,34,,31.8639,117.2808
04/03/2013 13:02,groucho-oregon,1032051418,TCP,,6000,1433,61.131.218.218,CN,China,Jiangxi Sheng,36,,28.55,115.9333
04/03/2013 13:03,groucho-sa,39359653,TCP,,3139,1433,2.88.148.165,SA,Saudi Arabia,,,,25,45
04/03/2013 13:03,groucho-sa,39359653,TCP,,3139,1433,2.88.148.165,SA,Saudi Arabia,,,,25,45
04/03/2013 13:03,groucho-sa,39359653,TCP,,3139,1433,2.88.148.165,SA,Saudi Arabia,,,,25,45
04/03/2013 13:04,groucho-oregon,1896596178,TCP,,6000,1433,113.11.194.210,CN,China,Beijing Shi,11,,39.9289,116.3883
04/03/2013 13:04,groucho-singapore,2093812546,TCP,,38953,25,124.205.11.66,CN,China,Beijing Shi,11,,39.9289,116.3883
04/03/2013 13:04,groucho-singapore,2093812546,TCP,,38953,25,124.205.11.66,CN,China,Beijing Shi,11,,39.9289,116.3883
04/03/2013 13:07,groucho-oregon,1020693322,TCP,,55308,3389,60.214.139.74,CN,China,Shandong Sheng,37,,36.6683,116.9972
04/03/2013 13:08,groucho-oregon,847734405,TCP,,59560,23,50.135.102.133,US,United States,Washington,WA,,47.7623,-122.2054
04/03/2013 13:10,groucho-oregon,3729343912,TCP,,6000,1433,222.73.69.168,CN,China,Shanghai Shi,31,,31.0456,121.3997
04/03/2013 13:10,groucho-oregon,1965603898,TCP,,47883,1433,117.40.188.58,CN,China,Jiangxi Sheng,36,,28.55,115.9333
04/03/2013 13:11,groucho-oregon,1033959362,TCP,,6000,1433,61.160.247.194,CN,China,Jiangsu Sheng,32,,32.0617,118.7778
04/03/2013 13:12,groucho-tokyo,1034185775,TCP,,6000,3306,61.164.108.47,CN,China,,,,35,105
04/03/2013 13:14,groucho-tokyo,1609108775,TCP,,2060,445,95.233.13.39,IT,Italy,Provincia di Brescia,BS,25012,45.3333,10.3333
04/03/2013 13:14,groucho-tokyo,1609108775,TCP,,2060,445,95.233.13.39,IT,Italy,Provincia di Brescia,BS,25012,45.3333,10.3333
04/03/2013 13:14,groucho-oregon,1995743143,TCP,,6000,1433,118.244.159.167,CN,China,Beijing Shi,11,,39.9289,116.3883
04/03/2013 13:15,groucho-tokyo,3413337368,TCP,,2318,445,203.115.101.24,IN,India,NCT,DL,,28.6,77.2
04/03/2013 13:15,groucho-tokyo,3413337368,TCP,,2318,445,203.115.101.24,IN,India,NCT,DL,,28.6,77.2
04/03/2013 13:15,groucho-singapore,3394623162,TCP,,24358,1433,202.85.214.186,CN,China,,,,35,105
04/03/2013 13:15,groucho-tokyo,1965603898,TCP,,43251,1433,117.40.188.58,CN,China,Jiangxi Sheng,36,,28.55,115.9333
